NAME,CREATED,ROAD,addresses_district_id,addresses_district_name,LATITUDE,LONGITUDE
Centre Cívic Pere Pruna,2000,Carrer de Ganduxer,5.0,Sarrià-Sant Gervasi,41.40320904460329,2.13132023534547
Centre Cívic Pere Pruna,2000,Carrer de Ganduxer,5.0,Sarrià-Sant Gervasi,41.40320904460329,2.13132023534547
Espai Lúdic Ambiental per a Famílies LaLudo,2000,Pas Institut Escola,1.0,Ciutat Vella,41.38737945873459,2.186898929399237
Centre Cívic Cotxeres Borrell,2002,Carrer de Viladomat,2.0,Eixample,41.37593604478161,2.1631899655131503
Centre Cívic Cotxeres Borrell,2002,Carrer de Viladomat,2.0,Eixample,41.37593604478161,2.1631899655131503
Centre Cívic Barceloneta,1994,Carrer de la Conreria,1.0,Ciutat Vella,41.38029984700479,2.1923160012104885
Centre Cívic Barceloneta,1994,Carrer de la Conreria,1.0,Ciutat Vella,41.38029984700479,2.1923160012104885
Centre Cívic Casa del Rellotge,1991,Passeig de la Zona Franca,3.0,Sants-Montjuïc,41.35757415322748,2.141406028389017
Centre Cívic Casa del Rellotge,1991,Passeig de la Zona Franca,3.0,Sants-Montjuïc,41.35757415322748,2.141406028389017
Estació d'Autobusos Barcelona Nord,1995,C Alí Bei,2.0,Eixample,41.394325719298415,2.182338154669274
Estació d'Autobusos Barcelona Nord,1995,C Alí Bei,2.0,Eixample,41.394325719298415,2.182338154669274
Centre Cívic Cotxeres de Sants,1984,Carrer de Sants,3.0,Sants-Montjuïc,41.37529848802473,2.136897693555585
Centre Cívic Cotxeres de Sants,1984,Carrer de Sants,3.0,Sants-Montjuïc,41.37529848802473,2.136897693555585
Mercat de Les Corts,1984,Travessera de les Corts,4.0,Les Corts,41.38407806063042,2.1298048647400445
Mercat de Les Corts,1984,Travessera de les Corts,4.0,Les Corts,41.38407806063042,2.1298048647400445
Museu Nacional d'Art de Catalunya,1994,C Mirador Palau Nacional,3.0,Sants-Montjuïc,41.368885103834,2.1533812278994167
Museu Nacional d'Art de Catalunya,1994,C Mirador Palau Nacional,3.0,Sants-Montjuïc,41.368885103834,2.1533812278994167
Centre Cívic  Teixonera,1995,Carrer d'Arenys,7.0,Horta-Guinardó,41.42266525008825,2.1445697223611813
Centre Cívic  Teixonera,1995,Carrer d'Arenys,7.0,Horta-Guinardó,41.42266525008825,2.1445697223611813
Punt de connexió Barcelona WiFi a la cruïlla del carrer Rosselló amb carrer Girona,2014,C Rosselló,2.0,Eixample,41.39925757923459,2.164950362282637
Punt de connexió Barcelona WiFi a la cruïlla del carrer Sant Antoni Maria Claret amb carrer Padilla,2014,C Sant Antoni Maria Claret,2.0,Eixample,41.4096542103138,2.172446028895253
Punt de connexió Barcelona WiFi a la cruïlla del carrer Sardenya amb carrer Diputació,2014,C Sardenya,2.0,Eixample,41.39948614304855,2.1787724869241747
Punt de connexió Barcelona WiFi a la cruïlla del carrer Pau Alsina amb carrer Providència,2014,Carrer de Pau Alsina,6.0,Gràcia,41.40970834203313,2.162641012661193
Jardins Can Brasó,1999,Juan de Mena,7.0,Horta-Guinardó,41.431242318297365,2.1483932883821786
Jardins Can Brasó,1999,Juan de Mena,7.0,Horta-Guinardó,41.431242318297365,2.1483932883821786
Associació el Caliu - Casal Congrés-Indians,1997,C Manigua,9.0,Sant Andreu,41.42401472780213,2.1794377487794963
Jardins de Sofia Barat,2003,Carrer de Girona,2.0,Eixample,41.394705643823904,2.1715220785730867
Jardins de Sofia Barat,2003,Carrer de Girona,2.0,Eixample,41.394705643823904,2.1715220785730867
Jardins de Sofia Barat,2003,Carrer de Girona,2.0,Eixample,41.394705643823904,2.1715220785730867
Punt de connexió Barcelona WiFi a la cruïlla del carrer Balmes amb Aragó,2014,C Balmes,2.0,Eixample,41.38966216781161,2.162036670437035
Punt de connexió Barcelona WiFi a la cruïlla del carrer Creu Coberta 104  amb Moianés,2014,C Creu Coberta,3.0,Sants-Montjuïc,41.3754087791269,2.142274392316013
Punt de connexió Barcelona WiFi a la cruïlla del carrer Padilla amb carrer València,2014,C Padilla,2.0,Eixample,41.40413137668143,2.1791017594310085
Punt de connexió Barcelona WiFi a la cruïlla del carrer Provença amb carrer Cartagena,2014,C Provença,2.0,Eixample,41.40756297099098,2.178773781838565
Gran Teatre del Liceu,1988,C la Rambla,1.0,Ciutat Vella,41.38014677441643,2.1733467293401083
Gran Teatre del Liceu,1988,C la Rambla,1.0,Ciutat Vella,41.38014677441643,2.1733467293401083
Gran Teatre del Liceu,1988,C la Rambla,1.0,Ciutat Vella,41.38014677441643,2.1733467293401083
Punt de connexió Barcelona WiFi a la cruïlla del carrer Mallorca amb carrer de Roger de Llúria,2014,C Mallorca,2.0,Eixample,41.39560029492796,2.165063528872462
Punt de connexió Barcelona WiFi a la cruïlla del carrer Pau Claris amb Provença,2014,C Pau Claris,2.0,Eixample,41.395635501664415,2.163147543239649
Punt de connexió Barcelona WiFi a la cruïlla de la Ronda del Guinardó amb Castillejos,2014,Rda Guinardó,7.0,Horta-Guinardó,41.41321000834633,2.1699012577127013
Punt de connexió Barcelona WiFi a la cruïlla del carrer Villarroel amb Consell de Cent,2014,C Villarroel,2.0,Eixample,41.38454549527551,2.157518572621256
Punt de connexió Barcelona WiFi a la cruïlla del carrer Jerez amb Coïmbra,2014,C Jerez,7.0,Horta-Guinardó,41.431530158706586,2.155225029725994
Punt Multimèdia de Sants - Montjuïc *Casa del Mig,2002,C Muntadas,3.0,Sants-Montjuïc,41.37749033167263,2.140748141715598
Punt de connexió Barcelona WiFi a la cruïlla Av. Estatut de Catalunya amb Punt Verd Zona Vall Hebron,2014,C Jorge Manrique,7.0,Horta-Guinardó,41.43144381245928,2.1533379275883577
Punt de connexió Barcelona WiFi a la cruïlla dels carrers Rocafort amb Diputació,2014,C Rocafort,2.0,Eixample,41.37946094804299,2.152949767378028
Punt de connexió Barcelona WiFi a la cruïlla del carrer Torrent de l'Olla amb carrer Nil Fabra,2014,C Torrent de l'Olla,6.0,Gràcia,41.40628596218682,2.1524696602367315
Punt de connexió Barcelona WiFi a la cruïlla del carrer Via Augusta amb carrer Luis Antúnez,2014,Via Augusta,5.0,Sarrià-Sant Gervasi,41.397775847789454,2.15376684698989
Punt de connexió Barcelona WiFi a la cruïlla del carrer Vergós amb carrer Rafael Batlle,2014,C Vergós,5.0,Sarrià-Sant Gervasi,41.39671666865485,2.1263759425571958
Punt de connexió Barcelona WiFi a la cruïlla del carrer Villaroel amb carrer Mallorca,2014,C Villarroel,2.0,Eixample,41.38727910377136,2.15425878563331
Punt de connexió Barcelona WiFi a la cruïlla del carrer Aragó amb carrer Bailèn,2014,C Aragó,2.0,Eixample,41.39665562120545,2.170553061908573
Punt de connexió Barcelona WiFi a la cruïlla del carrer Aragó amb carrer del Comte d'Urgell,2014,C Aragó,2.0,Eixample,41.384690842410976,2.154732320111855
Punt de connexió Barcelona WiFi a la cruïlla del carrer Felip II amb Garcilaso,2012,C Felip II,9.0,Sant Andreu,41.42314619606703,2.1833904277876366
Punt de connexió Barcelona WiFi a la cruïlla de Rambla de Catalunya amb Rosselló,2012,Rbla Catalunya,2.0,Eixample,41.394406494897005,2.1586099071690885
Punt de connexió Barcelona WiFi a la cruïlla del Pg. Reina Elisenda de Montcada amb la Plaça Sarrià,2012,Pl Sarrià,5.0,Sarrià-Sant Gervasi,41.39990623937946,2.1215091019699117
Punt de connexió Barcelona WiFi a la cruïlla del carrer Comte Borrell amb Manso,2012,C Comte Borrell,2.0,Eixample,41.39005091214047,2.164548981695884
Punt de connexió Barcelona WiFi a la cruïlla del carrer Fluvià amb Llull,2014,C Fluvià,10.0,Sant Martí,41.40581123983328,2.2087660437032044
Punt de connexió Barcelona WiFi a la cruïlla del carrer Josep Pla amb Llull,2014,C Josep Pla,10.0,Sant Martí,41.40866657660908,2.215793802624812
Punt de connexió Barcelona WiFi a la cruïlla del carrer Marià Aguiló amb Llull,2014,C Marià Aguiló,10.0,Sant Martí,41.40128783351127,2.2032783013705584
Punt de connexió Barcelona WiFi a la cruïlla del carrer Marià Aguiló amb Pujades,2014,C Marià Aguiló,10.0,Sant Martí,41.402439895015775,2.201334124002109
Punt de connexió Barcelona WiFi a la cruïlla de la Rambla del Poblenou amb el carrer Pujades,2014,Rbla Poblenou,10.0,Sant Martí,41.40191332541208,2.200390534721345
Punt de connexió Barcelona WiFi a la cruïlla de la Rambla del Poblenou amb Sancho de Àvila,2014,Rbla Poblenou,10.0,Sant Martí,41.40433741701694,2.196760784394467
Punt de connexió Barcelona WiFi a la cruïlla del carrer Selva de Mar amb Passeig del Taulat,2014,C Selva de Mar,10.0,Sant Martí,41.40617950213801,2.2132205131908624
Punt de connexió Barcelona WiFi a la cruïlla del carrer Balmes amb Provença,2014,C Balmes,2.0,Eixample,41.39256508217329,2.158184935056476
Punt de connexió Barcelona WiFi a la cruïlla del carrer Muntaner amb carrer Consell de Cent,2014,C Muntaner,2.0,Eixample,41.38624228581944,2.1597887934250983
Punt de connexió Barcelona WiFi a la cruïlla del carrer Muntaner amb carrer Còrsega,2014,C Muntaner,2.0,Eixample,41.39138745499209,2.15297392171799
Punt de connexió Barcelona WiFi a la cruïlla del carrer Muntaner amb carrer Plató,2014,C Muntaner,5.0,Sarrià-Sant Gervasi,41.39998930506088,2.141579428359965
Fàbrica de Creació Ateneu Popular 9 Barris,1988,C Portlligat,8.0,Nou Barris,41.44877310192653,2.180410246679443
Centre Esportiu Municipal Trinitat Vella,1989,Via Bàrcino,9.0,Sant Andreu,41.451474639572886,2.1931301317422927
Centre Esportiu Municipal Trinitat Vella,1989,Via Bàrcino,9.0,Sant Andreu,41.451474639572886,2.1931301317422927
Centre Esportiu Municipal Trinitat Vella,1989,Via Bàrcino,9.0,Sant Andreu,41.451474639572886,2.1931301317422927
Centre Esportiu Municipal Trinitat Vella,1989,Via Bàrcino,9.0,Sant Andreu,41.451474639572886,2.1931301317422927
Centre Esportiu Municipal Trinitat Vella,1989,Via Bàrcino,9.0,Sant Andreu,41.451474639572886,2.1931301317422927
Centre Esportiu Municipal Trinitat Vella,1989,Via Bàrcino,9.0,Sant Andreu,41.451474639572886,2.1931301317422927
Centre Esportiu Municipal Trinitat Vella,1989,Via Bàrcino,9.0,Sant Andreu,41.451474639572886,2.1931301317422927
Centre Esportiu Municipal Trinitat Vella,1989,Via Bàrcino,9.0,Sant Andreu,41.451474639572886,2.1931301317422927
Centre Cultural La Casa Elizalde,1984,Carrer de València,2.0,Eixample,41.39451897581476,2.165900883899018
Centre Cultural La Casa Elizalde,1984,Carrer de València,2.0,Eixample,41.39451897581476,2.165900883899018
Museu d'Art Contemporani de Barcelona,1994,Pl Àngels,1.0,Ciutat Vella,41.38322313755374,2.166969712908759
Museu d'Art Contemporani de Barcelona,1994,Pl Àngels,1.0,Ciutat Vella,41.38322313755374,2.166969712908759
Museu d'Art Contemporani de Barcelona,1994,Pl Àngels,1.0,Ciutat Vella,41.38322313755374,2.166969712908759
Centre Cívic Josep Maria Trias i Peitx,2000,Riera Blanca,4.0,Les Corts,41.37780921625306,2.121779134621021
Centre Cívic Josep Maria Trias i Peitx,2000,Riera Blanca,4.0,Les Corts,41.37780921625306,2.121779134621021
Espai de Gent Gran Sant Antoni,1991,C Comte Borrell,2.0,Eixample,41.37741627114468,2.1627959464021846
Espai de Gent Gran Sant Antoni,1991,C Comte Borrell,2.0,Eixample,41.37741627114468,2.1627959464021846
Ludoteca Maria Gràcia Pont,1996,Rbla Poblenou,10.0,Sant Martí,41.40195531188363,2.1999581880082264
Ludoteca Maria Gràcia Pont,1996,Rbla Poblenou,10.0,Sant Martí,41.40195531188363,2.1999581880082264
Mercat de La Concepció,1984,Carrer d'Aragó,2.0,Eixample,41.39556815947775,2.169071648271845
Mercat de La Concepció,1984,Carrer d'Aragó,2.0,Eixample,41.39556815947775,2.169071648271845
Espai Jove Garcilaso,1999,C Garcilaso,9.0,Sant Andreu,41.42263560544463,2.1862316852898918
Casal de Gent Gran Joan Casanelles,2006,C Concili de Trento,10.0,Sant Martí,41.411654002846696,2.1928845041999008
Casal de Gent Gran Joan Casanelles,2006,C Concili de Trento,10.0,Sant Martí,41.411654002846696,2.1928845041999008
Centre Cívic La Sedeta,1984,Carrer de Sicília,6.0,Gràcia,41.40557651201225,2.167687591797475
Centre Cívic La Sedeta,1984,Carrer de Sicília,6.0,Gràcia,41.40557651201225,2.167687591797475
Jardí de les Escultures *Annex Edifici Fundació Joan Miró,1990,Av Miramar,3.0,Sants-Montjuïc,41.36829226182124,2.1601492925476364
Jardí de les Escultures *Annex Edifici Fundació Joan Miró,1990,Av Miramar,3.0,Sants-Montjuïc,41.36829226182124,2.1601492925476364
Casal de Gent Gran Sant Cristòfol,2001,C Bronze,3.0,Sants-Montjuïc,41.35803481074543,2.1352119680510184
Casal de Gent Gran Sant Cristòfol,2001,C Bronze,3.0,Sants-Montjuïc,41.35803481074543,2.1352119680510184
Centre Cívic Besòs,1993,Rambla de Prim,10.0,Sant Martí,41.41634059080285,2.211497717250588
Centre Cívic Besòs,1993,Rambla de Prim,10.0,Sant Martí,41.41634059080285,2.211497717250588
Centre Esportiu Municipal Aiguajoc Borrell,1996,C Comte Borrell,2.0,Eixample,41.37640395525677,2.163762539235644
Centre Esportiu Municipal Aiguajoc Borrell,1996,C Comte Borrell,2.0,Eixample,41.37640395525677,2.163762539235644
Centre Esportiu Municipal Aiguajoc Borrell,1996,C Comte Borrell,2.0,Eixample,41.37640395525677,2.163762539235644
Centre Esportiu Municipal Aiguajoc Borrell,1996,C Comte Borrell,2.0,Eixample,41.37640395525677,2.163762539235644
Centre Esportiu Municipal Aiguajoc Borrell,1996,C Comte Borrell,2.0,Eixample,41.37640395525677,2.163762539235644
Centre Esportiu Municipal Aiguajoc Borrell,1996,C Comte Borrell,2.0,Eixample,41.37640395525677,2.163762539235644
Centre Esportiu Municipal Aiguajoc Borrell,1996,C Comte Borrell,2.0,Eixample,41.37640395525677,2.163762539235644
Centre Esportiu Municipal Aiguajoc Borrell,1996,C Comte Borrell,2.0,Eixample,41.37640395525677,2.163762539235644
Centre Esportiu Municipal Aiguajoc Borrell,1996,C Comte Borrell,2.0,Eixample,41.37640395525677,2.163762539235644
Centre Esportiu Municipal Aiguajoc Borrell,1996,C Comte Borrell,2.0,Eixample,41.37640395525677,2.163762539235644
Jardins de Vil·la Florida,2005,C Muntaner,5.0,Sarrià-Sant Gervasi,41.40536533899808,2.135308972460361
Jardins de Vil·la Florida,2005,C Muntaner,5.0,Sarrià-Sant Gervasi,41.40536533899808,2.135308972460361
Centre Cultural Can Fabra,2002,C Segre,9.0,Sant Andreu,41.43419681654932,2.191178054099438
Punt de connexió Barcelona WiFi a la Plaça Molina,2012,Pl Molina,5.0,Sarrià-Sant Gervasi,41.40125374343485,2.147137342670244
Punt de connexió Barcelona WiFi a la cruïlla de la Rambla de Catalunya amb l'Avinguda Diagonal,2012,Av Diagonal,2.0,Eixample,41.39586484265992,2.1572848524128228
Punt de connexió Barcelona WiFi a la cruïlla del carrer Rosari amb Via Augusta,2012,C Rosari,5.0,Sarrià-Sant Gervasi,41.3977535184911,2.131512114799857
Torre Jussana - Centre de Serveis a les Associacions,1987,Av Cardenal Vidal Barraquer,7.0,Horta-Guinardó,41.42969190027591,2.15131477992075
Punt de connexió Barcelona WiFi a la cruïlla del carrer de Feliu i Codina amb Passeig Valldaura,2014,C Feliu i Codina,8.0,Nou Barris,41.43909057465926,2.1649602157036525
Centre Cívic Casa Golferichs,1984,Gran Via de les Corts Catalanes,2.0,Eixample,41.3808491471351,2.1564074948215346
Centre Cívic Casa Golferichs,1984,Gran Via de les Corts Catalanes,2.0,Eixample,41.3808491471351,2.1564074948215346
Punt de connexió Barcelona WiFi a la cruïlla del carrer Llacuna amb el carrer Pujades,2014,C Llacuna,10.0,Sant Martí,41.40051950408717,2.199507573261947
Punt de connexió Barcelona WiFi a la cruïlla del carrer Llacuna amb Doctor Trueta,2014,C Llacuna,10.0,Sant Martí,41.39792097282805,2.203002910532537
Punt de connexió Barcelona WiFi a la cruïlla del carrer Selva de Mar amb Llull,2014,C Selva de Mar,10.0,Sant Martí,41.40833239769161,2.2100420005777868
Casal de Gent Gran Pati Llimona,1985,Correu Vell,1.0,Ciutat Vella,41.38167196970871,2.1797346825803365
Casal de Gent Gran Pati Llimona,1985,Correu Vell,1.0,Ciutat Vella,41.38167196970871,2.1797346825803365
Casal de Gent Gran Comerç,1985,C Rec,1.0,Ciutat Vella,41.38609632456878,2.1822927949122124
Casal de Gent Gran Comerç,1985,C Rec,1.0,Ciutat Vella,41.38609632456878,2.1822927949122124
Espai de Gent Gran  El Polvorí,1985,Carrer del Guadalquivir,3.0,Sants-Montjuïc,41.36362191725007,2.1411653630200176
Espai de Gent Gran  El Polvorí,1985,Carrer del Guadalquivir,3.0,Sants-Montjuïc,41.36362191725007,2.1411653630200176
Punt de connexió Barcelona WiFi a la cruïlla de La Rambla amb el carrer Carme,2012,C la Rambla,1.0,Ciutat Vella,41.38301473433527,2.171757570135389
Punt de connexió Barcelona WiFi a la cruïlla del carrer Pas Sota Muralla amb el Passeig d'Isabel II,2012,Pas Sota Muralla,1.0,Ciutat Vella,41.38118980326311,2.1823939091749125
Punt de connexió Barcelona WiFi a la cruïlla del carrer Sardenya amb Provença,2012,C Sardenya,2.0,Eixample,41.403631821681074,2.1729044630047105
Punt de connexió Barcelona WiFi a la cruïlla del carrer Marina amb Mallorca,2012,C Mallorca,2.0,Eixample,41.403817962231,2.175815616715429
Punt de connexió Barcelona WiFi a la cruïlla del carrer Thous amb el carrer Josep Ciurana,2014,C Thous,7.0,Horta-Guinardó,41.41384764838958,2.1674316560408755
Punt de connexió Barcelona WiFi a la cruïlla del carrer Vallmajor amb carrer Raset,2014,C Vallmajor,5.0,Sarrià-Sant Gervasi,41.39846208901378,2.1386852252840747
Punt de connexió Barcelona WiFi a la cruïlla del carrer Vallmajor amb carrer Reina Victoria,2014,C Vallmajor,5.0,Sarrià-Sant Gervasi,41.39674456191916,2.1388072234545072
Punt de connexió Barcelona WiFi a la cruïlla del carrer Via Augusta amb Travessera de Gràcia,2014,Via Augusta,5.0,Sarrià-Sant Gervasi,41.39831421552623,2.1532361007994347
Punt de connexió Barcelona WiFi a la cruïlla del carrer Vergós amb Plaça Artós,2014,C Vergós,5.0,Sarrià-Sant Gervasi,41.39617430812726,2.126034596657246
Punt de connexió Barcelona WiFi a la cruïlla dels carrers Viladomat amb c. Consell de Cent,2014,C Viladomat,2.0,Eixample,41.38199491343936,2.154117298849488
Punt de connexió Barcelona WiFi a la cruïlla dels carrers Viladomat amb carrer Aragó,2014,C Viladomat,2.0,Eixample,41.383245089948765,2.152462361362509
Punt de connexió Barcelona WiFi a la cruïlla del carrer Villaroel amb carrer Buenos Aires,2014,C Villarroel,2.0,Eixample,41.39237166029368,2.1475065906092508
Punt de connexió Barcelona WiFi a la cruïlla del carrer Villaroel amb carrer València,2014,C Villarroel,2.0,Eixample,41.38640144744309,2.1554200161200305
Punt de connexió Barcelona WiFi a la cruïlla del carrer Aragó amb carrer Cartagena,2014,C Aragó,2.0,Eixample,41.405542850404046,2.182319182690653
Punt de connexió Barcelona WiFi a la cruïlla del carrer Aragó amb carrer Roger de Llúria,2014,C Aragó,2.0,Eixample,41.394580031201095,2.167794566870944
Centre Cívic Can Felipa,1991,Plaça de Josep Maria Huertas Claveria,10.0,Sant Martí,41.40367975860696,2.20050971216533
Centre Cívic Can Felipa,1991,Plaça de Josep Maria Huertas Claveria,10.0,Sant Martí,41.40367975860696,2.20050971216533
Punt de connexió Barcelona WiFi a la cruïlla del carrer del Comte d'Urgell amb Còrsega,2014,C Comte d'Urgell,2.0,Eixample,41.38905202099522,2.149763110696664
Punt de connexió Barcelona WiFi a la cruïlla del carrer Taxdirt amb Sardenya,2014,C Taxdirt,6.0,Gràcia,41.40892204440249,2.165764631997059
Punt de connexió Barcelona WiFi a la cruïlla dels carrers Entença amb carrer del Consell de Cent,2014,C Entença,2.0,Eixample,41.37944511035669,2.1507131940903763
Punt de connexió Barcelona WiFi a la cruïlla del carrer Indústria amb carrer del Dos de Maig,2014,C Indústria,2.0,Eixample,41.41086084023397,2.1763233301349656
Centre Cívic Casinet d'Hostafrancs,1984,Carrer del Rector Triadó,3.0,Sants-Montjuïc,41.37785807405672,2.1432215181756806
Centre Cívic Casinet d'Hostafrancs,1984,Carrer del Rector Triadó,3.0,Sants-Montjuïc,41.37785807405672,2.1432215181756806
Casal de Barri Font d'en Fargues,1991,C Pedrell,7.0,Horta-Guinardó,41.424333431530485,2.16524810902057
Casal de Barri Font d'en Fargues,1991,C Pedrell,7.0,Horta-Guinardó,41.424333431530485,2.16524810902057
Punt de connexió Barcelona WiFi a la cruïlla del carrer Pau Claris amb carrer Còrsega,2014,C Pau Claris,2.0,Eixample,41.39731221004057,2.160932173010841
Punt de connexió Barcelona WiFi a la cruïlla de la Rambla de Prat amb el carrer Gran de Gràcia,2014,Rbla Prat,6.0,Gràcia,41.4018619863958,2.152769925875062
Punt de connexió Barcelona WiFi a la cruïlla de la Ronda del Guinardó amb el carrer Lepant,2014,Rda Guinardó,7.0,Horta-Guinardó,41.41237200895032,2.166091502626774
Punt de connexió Barcelona WiFi a la cruïlla del carrer Sicília amb el carrer Consell de Cent,2014,C Sicília,2.0,Eixample,41.39938383553342,2.1762547583718184
Punt de connexió Barcelona WiFi a la cruïlla del carrer Santa Rosa amb el carrer Gran de Gràcia,2014,C Santa Rosa,6.0,Gràcia,41.40329143270043,2.152887344839228
Casal de Gent Gran de Sant Martí,1985,Carrer de la Selva de Mar,10.0,Sant Martí,41.416655162890336,2.1985817268755223
Casal de Gent Gran de Sant Martí,1985,Carrer de la Selva de Mar,10.0,Sant Martí,41.416655162890336,2.1985817268755223
Casal de Gent Gran Taulat - Can Saladrigas,1985,C Llull,10.0,Sant Martí,41.401914106420726,2.203528910844115
Casal de Gent Gran Taulat - Can Saladrigas,1985,C Llull,10.0,Sant Martí,41.401914106420726,2.203528910844115
Punt de connexió Barcelona WiFi a la cruïlla del carrer Muntaner amb carrer Calaf,2014,C Muntaner,5.0,Sarrià-Sant Gervasi,41.3976594641527,2.144696692905894
Punt de connexió Barcelona WiFi a la cruïlla del carrer Muntaner amb carrer Descartes,2014,C Muntaner,5.0,Sarrià-Sant Gervasi,41.39955434030976,2.1421582225388
Punt de connexió Barcelona WiFi a la cruïlla del carrer Muntaner amb carrer Rector Ubach,2014,C Muntaner,5.0,Sarrià-Sant Gervasi,41.39821522206376,2.143944759255802
Punt de connexió Barcelona WiFi a la cruïlla del carrer Nàpols amb carrer Diputació,2014,C Nàpols,2.0,Eixample,41.397318518910886,2.1767154740133754
Punt de connexió Barcelona WiFi a la cruïlla del Passeig Maragall amb c. de Sant Antoni Maria Claret,2014,Pg Maragall,10.0,Sant Martí,41.41574157238098,2.180738533712315
Punt de connexió Barcelona WiFi a la cruïlla de la Ronda Guinardo amb Edifici d'aigua,2014,Rda Guinardó,7.0,Horta-Guinardó,41.41279780128245,2.166481155557753
Palau de la Música Catalana,1988,C Palau de la Música,1.0,Ciutat Vella,41.38736310291296,2.1751754135417323
Casal de Gent Gran de la Trinitat Nova,1989,Carrer de Platja d'Aro,8.0,Nou Barris,41.448783645252206,2.187247457100886
Casal de Gent Gran de la Trinitat Nova,1989,Carrer de Platja d'Aro,8.0,Nou Barris,41.448783645252206,2.187247457100886
Casal de Gent Gran Montmany,1990,C Montmany,6.0,Gràcia,41.4050523058095,2.159179223131068
Casal de Gent Gran Montmany,1990,C Montmany,6.0,Gràcia,41.4050523058095,2.159179223131068
Sala Jove de Baró de Viver,2010,Pg Santa Coloma,9.0,Sant Andreu,41.44814919238835,2.199094780328391
Centre d'Informació i Assessorament per a Joves,1988,C Sant Oleguer,1.0,Ciutat Vella,41.3775251566284,2.1706424820733963
Parc de l'Espanya Industrial,1986,Carrer de Muntadas,3.0,Sants-Montjuïc,41.37653564822331,2.139874006322372
Parc de l'Espanya Industrial,1986,Carrer de Muntadas,3.0,Sants-Montjuïc,41.37653564822331,2.139874006322372
Centre Cívic Casa Orlandai,2007,Carrer de Jaume Piquet,5.0,Sarrià-Sant Gervasi,41.39835999770311,2.1246720318706647
Centre Cívic Casa Orlandai,2007,Carrer de Jaume Piquet,5.0,Sarrià-Sant Gervasi,41.39835999770311,2.1246720318706647
Park Güell,1987,Carrer d'Olot,6.0,Gràcia,41.41350924872243,2.1531271963876573
Park Güell,1987,Carrer d'Olot,6.0,Gràcia,41.41350924872243,2.1531271963876573
Centre Esportiu Municipal Guinardó,2005,C Telègraf,7.0,Horta-Guinardó,41.416979061800994,2.1737722486271203
Centre Esportiu Municipal Guinardó,2005,C Telègraf,7.0,Horta-Guinardó,41.416979061800994,2.1737722486271203
Centre Esportiu Municipal Guinardó,2005,C Telègraf,7.0,Horta-Guinardó,41.416979061800994,2.1737722486271203
Centre Esportiu Municipal Guinardó,2005,C Telègraf,7.0,Horta-Guinardó,41.416979061800994,2.1737722486271203
Centre Esportiu Municipal Guinardó,2005,C Telègraf,7.0,Horta-Guinardó,41.416979061800994,2.1737722486271203
Centre Esportiu Municipal Guinardó,2005,C Telègraf,7.0,Horta-Guinardó,41.416979061800994,2.1737722486271203
Centre Esportiu Municipal Guinardó,2005,C Telègraf,7.0,Horta-Guinardó,41.416979061800994,2.1737722486271203
Centre Esportiu Municipal Guinardó,2005,C Telègraf,7.0,Horta-Guinardó,41.416979061800994,2.1737722486271203
Centre Esportiu Municipal Guinardó,2005,C Telègraf,7.0,Horta-Guinardó,41.416979061800994,2.1737722486271203
Centre Esportiu Municipal Guinardó,2005,C Telègraf,7.0,Horta-Guinardó,41.416979061800994,2.1737722486271203
Parc del Laberint d'Horta,1985,Pg Castanyers,7.0,Horta-Guinardó,41.4379570487644,2.1475613087947543
Parc del Laberint d'Horta,1985,Pg Castanyers,7.0,Horta-Guinardó,41.4379570487644,2.1475613087947543
Centre Cívic Can Deu,1986,Plaça de la Concòrdia,4.0,Les Corts,41.38679400774151,2.1325216465394625
Centre Cívic Can Deu,1986,Plaça de la Concòrdia,4.0,Les Corts,41.38679400774151,2.1325216465394625
Centre Cívic Casa Groga,1991,Avinguda del Jordà,7.0,Horta-Guinardó,41.42689816008589,2.1374633929572053
Centre Cívic Casa Groga,1991,Avinguda del Jordà,7.0,Horta-Guinardó,41.42689816008589,2.1374633929572053
Casal de Gent Gran Joan Maragall,1990,C Bermejo,10.0,Sant Martí,41.413443683700464,2.217538308256468
Casal de Gent Gran Joan Maragall,1990,C Bermejo,10.0,Sant Martí,41.413443683700464,2.217538308256468
Consell de la Joventut Districte Horta-Guinardó,1988,Pl Eivissa,7.0,Horta-Guinardó,41.43074031284582,2.1610222031623985
Complex Esportiu Municipal Olímpia,1991,C Perú,10.0,Sant Martí,41.41288273565778,2.201376087453191
Complex Esportiu Municipal Olímpia,1991,C Perú,10.0,Sant Martí,41.41288273565778,2.201376087453191
Complex Esportiu Municipal Olímpia,1991,C Perú,10.0,Sant Martí,41.41288273565778,2.201376087453191
Complex Esportiu Municipal Olímpia,1991,C Perú,10.0,Sant Martí,41.41288273565778,2.201376087453191
Centre Esportiu Municipal la Bordeta,2005,C Noguera Pallaresa,3.0,Sants-Montjuïc,41.372137142800845,2.139359752043456
Centre Esportiu Municipal la Bordeta,2005,C Noguera Pallaresa,3.0,Sants-Montjuïc,41.372137142800845,2.139359752043456
Centre Esportiu Municipal la Bordeta,2005,C Noguera Pallaresa,3.0,Sants-Montjuïc,41.372137142800845,2.139359752043456
Centre Esportiu Municipal la Bordeta,2005,C Noguera Pallaresa,3.0,Sants-Montjuïc,41.372137142800845,2.139359752043456
Centre Esportiu Municipal la Bordeta,2005,C Noguera Pallaresa,3.0,Sants-Montjuïc,41.372137142800845,2.139359752043456
Centre Cívic La Cadena,1987,Carrer de la Mare de Déu de Port,3.0,Sants-Montjuïc,41.36419051493964,2.139088742010841
Centre Cívic La Cadena,1987,Carrer de la Mare de Déu de Port,3.0,Sants-Montjuïc,41.36419051493964,2.139088742010841
Institut Montserrat,1984,C Copèrnic,5.0,Sarrià-Sant Gervasi,41.40187095521701,2.14309785173122
Institut Montserrat,1984,C Copèrnic,5.0,Sarrià-Sant Gervasi,41.40187095521701,2.14309785173122
Centre Esportiu Municipal Joan Miró,1991,C Diputació,2.0,Eixample,41.37849159415273,2.1510038683628
Centre Esportiu Municipal Joan Miró,1991,C Diputació,2.0,Eixample,41.37849159415273,2.1510038683628
Centre Esportiu Municipal Joan Miró,1991,C Diputació,2.0,Eixample,41.37849159415273,2.1510038683628
Centre Esportiu Municipal Joan Miró,1991,C Diputació,2.0,Eixample,41.37849159415273,2.1510038683628
Centre Esportiu Municipal Joan Miró,1991,C Diputació,2.0,Eixample,41.37849159415273,2.1510038683628
Centre Esportiu Municipal Joan Miró,1991,C Diputació,2.0,Eixample,41.37849159415273,2.1510038683628
Centre Esportiu Municipal Joan Miró,1991,C Diputació,2.0,Eixample,41.37849159415273,2.1510038683628
Centre Esportiu Municipal Joan Miró,1991,C Diputació,2.0,Eixample,41.37849159415273,2.1510038683628
Centre Esportiu Municipal Joan Miró,1991,C Diputació,2.0,Eixample,41.37849159415273,2.1510038683628
Centre Esportiu Municipal Joan Miró,1991,C Diputació,2.0,Eixample,41.37849159415273,2.1510038683628
Casal de Gent Gran Pau Casals,1985,C Juan Ramón Jiménez,8.0,Nou Barris,41.44214479793018,2.162182397041679
Casal de Gent Gran Pau Casals,1985,C Juan Ramón Jiménez,8.0,Nou Barris,41.44214479793018,2.162182397041679
Casal de Gent Gran Casa Nostra,1985,C Maladeta,8.0,Nou Barris,41.43286932439506,2.176298036903024
Casal de Gent Gran Casa Nostra,1985,C Maladeta,8.0,Nou Barris,41.43286932439506,2.176298036903024
Centre Cívic Guinardó,1984,Ronda del Guinardó,7.0,Horta-Guinardó,41.41610799335015,2.1733783934174653
Centre Cívic Guinardó,1984,Ronda del Guinardó,7.0,Horta-Guinardó,41.41610799335015,2.1733783934174653
Casal de Gent Gran Vall d'Hebron,2008,C Arquitecte Moragas,7.0,Horta-Guinardó,41.43280895696014,2.147129977350178
Casal de Gent Gran Vall d'Hebron,2008,C Arquitecte Moragas,7.0,Horta-Guinardó,41.43280895696014,2.147129977350178
Espai de Gent Gran Maria Aurèlia Capmany,1992,Enric Granados,2.0,Eixample,41.39030865807796,2.15892091391226
Espai de Gent Gran Maria Aurèlia Capmany,1992,Enric Granados,2.0,Eixample,41.39030865807796,2.15892091391226
Centre Cívic El Coll - La Bruguera,1992,Carrer de l'Aldea,6.0,Gràcia,41.41860650477411,2.149915320833742
Centre Cívic El Coll - La Bruguera,1992,Carrer de l'Aldea,6.0,Gràcia,41.41860650477411,2.149915320833742
Centre Cívic  Vil·la Urània,2007,Carrer de Saragossa,5.0,Sarrià-Sant Gervasi,41.40144911965886,2.149816841793133
Centre Cívic  Vil·la Urània,2007,Carrer de Saragossa,5.0,Sarrià-Sant Gervasi,41.40144911965886,2.149816841793133
Centre Ton i Guida,2005,C Romaní,8.0,Nou Barris,41.44644518692781,2.1751243525917228
Centre Ton i Guida,2005,C Romaní,8.0,Nou Barris,41.44644518692781,2.1751243525917228
Punt de connexió Barcelona WiFi a la cruïlla del c. Casanova amb la Gran Via de les Corts Catalanes,2012,G.V. Corts Catalanes,2.0,Eixample,41.38378408111714,2.160762904130962
Punt de connexió Barcelona WiFi a la cruïlla del c. Comte d'Urgell amb la G. V. Corts Catalanes,2012,C Comte d'Urgell,2.0,Eixample,41.38212569474469,2.158721234788178
Punt de connexió Barcelona WiFi a la cruïlla del c. Viladomat amb la Gran Via de les Corts Catalanes,2012,G.V. Corts Catalanes,2.0,Eixample,41.38036453020078,2.156154543883509
Punt de connexió Barcelona WiFi a la cruïlla del carrer Balmes amb Pelai,2012,C Pelai,1.0,Ciutat Vella,41.38578974014322,2.1671824343460986
Sala Pepita Casanellas,2007,Pg Zona Franca,3.0,Sants-Montjuïc,41.36098554188562,2.137864519815123
Punt de connexió Barcelona WiFi a la cruïlla del carrer Casanova amb Aragó,2012,Av Roma,2.0,Eixample,41.38662855336058,2.157393344513196
Punt de connexió Barcelona WiFi a la cruïlla del Passeig Colom amb el carrer Simó Oller,2011,Pg Colom,1.0,Ciutat Vella,41.37925085427115,2.180857805872098
Punt de connexió Barcelona WiFi a la cruïlla del Passeig de Gràcia amb el carrer Sèneca,2011,Pg Gràcia,6.0,Gràcia,41.397820446440974,2.1577876069998188
Espai Antoni Miró Peris,2008,Pl Carme Montoriol,10.0,Sant Martí,41.41289250576009,2.1845567893238904
Espai Antoni Miró Peris,2008,Pl Carme Montoriol,10.0,Sant Martí,41.41289250576009,2.1845567893238904
Casal de Gent Gran de Sant Ramon,2002,Cardenal Reig,4.0,Les Corts,41.37701762396752,2.113853253307032
Casal de Gent Gran de Sant Ramon,2002,Cardenal Reig,4.0,Les Corts,41.37701762396752,2.113853253307032
Centre Esportiu Municipal Sardenya,1997,C Sardenya,6.0,Gràcia,41.41223356892982,2.1622422992641552
Centre Esportiu Municipal Sardenya,1997,C Sardenya,6.0,Gràcia,41.41223356892982,2.1622422992641552
Centre Esportiu Municipal Sardenya,1997,C Sardenya,6.0,Gràcia,41.41223356892982,2.1622422992641552
Centre Esportiu Municipal Sardenya,1997,C Sardenya,6.0,Gràcia,41.41223356892982,2.1622422992641552
Centre Esportiu Municipal Sardenya,1997,C Sardenya,6.0,Gràcia,41.41223356892982,2.1622422992641552
Centre Esportiu Municipal Sardenya,1997,C Sardenya,6.0,Gràcia,41.41223356892982,2.1622422992641552
Centre Esportiu Municipal Sardenya,1997,C Sardenya,6.0,Gràcia,41.41223356892982,2.1622422992641552
Centre Esportiu Municipal Sardenya,1997,C Sardenya,6.0,Gràcia,41.41223356892982,2.1622422992641552
Centre Esportiu Municipal Sardenya,1997,C Sardenya,6.0,Gràcia,41.41223356892982,2.1622422992641552
Casal de Gent Gran La Capa,1995,Carrer dels Alts Forns,3.0,Sants-Montjuïc,41.3599635917374,2.142725771598069
Casal de Gent Gran La Capa,1995,Carrer dels Alts Forns,3.0,Sants-Montjuïc,41.3599635917374,2.142725771598069
Sala d'Estudi Raval - Sant Oleguer,2008,C Sant Oleguer,1.0,Ciutat Vella,41.3775251566284,2.1706424820733963
Sala d'Estudi Raval - Sant Oleguer,2008,C Sant Oleguer,1.0,Ciutat Vella,41.3775251566284,2.1706424820733963
Biblioteca Vilapicina i la Torre Llobeta,1999,Plaça de Carmen Laforet,8.0,Nou Barris,41.42691611188821,2.1764696039707148
Biblioteca Vilapicina i la Torre Llobeta,1999,Plaça de Carmen Laforet,8.0,Nou Barris,41.42691611188821,2.1764696039707148
Biblioteca Vilapicina i la Torre Llobeta,1999,Plaça de Carmen Laforet,8.0,Nou Barris,41.42691611188821,2.1764696039707148
Biblioteca Vilapicina i la Torre Llobeta,1999,Plaça de Carmen Laforet,8.0,Nou Barris,41.42691611188821,2.1764696039707148
Centre de Serveis Socials Nova Esquerra de l'Eixample,1998,Carrer del Comte Borrell,2.0,Eixample,41.38950562237319,2.146397759629386
Centre de Serveis Socials Nova Esquerra de l'Eixample,1998,Carrer del Comte Borrell,2.0,Eixample,41.38950562237319,2.146397759629386
Centre Cívic Convent de Sant Agustí,1998,Carrer del Comerç,1.0,Ciutat Vella,41.38741922402338,2.181725967522791
Centre Cívic Convent de Sant Agustí,1998,Carrer del Comerç,1.0,Ciutat Vella,41.38741922402338,2.181725967522791
Centre Cívic del Bon Pastor,1989,Plaça de Robert Gerhard,9.0,Sant Andreu,41.43481243810341,2.2049292862975705
Centre Cívic del Bon Pastor,1989,Plaça de Robert Gerhard,9.0,Sant Andreu,41.43481243810341,2.2049292862975705
Camp Municipal Futbol Narcís Sala,1987,C Santa Coloma,9.0,Sant Andreu,41.42889692238828,2.1930944831499715
Camp Municipal Futbol Narcís Sala,1987,C Santa Coloma,9.0,Sant Andreu,41.42889692238828,2.1930944831499715
Camp Municipal Futbol Narcís Sala,1987,C Santa Coloma,9.0,Sant Andreu,41.42889692238828,2.1930944831499715
Camp Municipal Futbol Narcís Sala,1987,C Santa Coloma,9.0,Sant Andreu,41.42889692238828,2.1930944831499715
Consorci de les Drassanes Reials i Museu Marítim de Barcelona,1995,Av Drassanes,1.0,Ciutat Vella,41.375981756802304,2.1760573876381613
Centre Cívic Drassanes,1991,Carrer Nou de la Rambla,1.0,Ciutat Vella,41.37767838726746,2.172864399551599
Centre Cívic Drassanes,1991,Carrer Nou de la Rambla,1.0,Ciutat Vella,41.37767838726746,2.172864399551599
Centre Cívic Zona Nord,1987,Carrer de Vallcivera,8.0,Nou Barris,41.46070056717624,2.1783656547350856
Centre Cívic Zona Nord,1987,Carrer de Vallcivera,8.0,Nou Barris,41.46070056717624,2.1783656547350856
Centre Artesà Tradicionàrius,1984,Trvs Sant Antoni,6.0,Gràcia,41.40254484377345,2.1547130775919525
Centre Artesà Tradicionàrius,1984,Trvs Sant Antoni,6.0,Gràcia,41.40254484377345,2.1547130775919525
Centre Cívic El Carmel,1990,Carrer del Santuari,7.0,Horta-Guinardó,41.386016161322615,2.16940045887298
Centre Cívic El Carmel,1990,Carrer del Santuari,7.0,Horta-Guinardó,41.386016161322615,2.16940045887298
Espai de Gent Gran Parc del Guinardó,1985,C Garriga i Roca,7.0,Horta-Guinardó,41.42131697844332,2.1703217649757125
Espai de Gent Gran Parc del Guinardó,1985,C Garriga i Roca,7.0,Horta-Guinardó,41.42131697844332,2.1703217649757125
Casal de Barri La Pau,1986,C Pere Vergés,10.0,Sant Martí,41.42279520372416,2.208969599145994
Casal de Barri La Pau,1986,C Pere Vergés,10.0,Sant Martí,41.42279520372416,2.208969599145994
Parc de Joan Miró,1985,C Aragó,2.0,Eixample,41.3788385686716,2.147334688275456
Parc de Joan Miró,1985,C Aragó,2.0,Eixample,41.3788385686716,2.147334688275456
Casal Infantil Sant Martí,1985,C Selva de Mar,10.0,Sant Martí,41.41665521642997,2.198581654422569
Casal Infantil Sant Martí,1985,C Selva de Mar,10.0,Sant Martí,41.41665521642997,2.198581654422569
Museu Martorell,1984,Pg Picasso,1.0,Ciutat Vella,41.3872412207144,2.184226426916973
Museu Martorell,1984,Pg Picasso,1.0,Ciutat Vella,41.3872412207144,2.184226426916973
Museu Martorell,1984,Pg Picasso,1.0,Ciutat Vella,41.3872412207144,2.184226426916973
Centre Cívic La Sagrera La Barraca,1984,Carrer de Martí Molins,9.0,Sant Andreu,41.423974257025534,2.1891508567064406
Centre Cívic La Sagrera La Barraca,1984,Carrer de Martí Molins,9.0,Sant Andreu,41.423974257025534,2.1891508567064406
Centre Esportiu Municipal Júpiter,1989,C Agricultura,10.0,Sant Martí,41.41773642679194,2.202020779488626
Centre Esportiu Municipal Júpiter,1989,C Agricultura,10.0,Sant Martí,41.41773642679194,2.202020779488626
Centre Esportiu Municipal Júpiter,1989,C Agricultura,10.0,Sant Martí,41.41773642679194,2.202020779488626
Centre Esportiu Municipal Júpiter,1989,C Agricultura,10.0,Sant Martí,41.41773642679194,2.202020779488626
Centre Esportiu Municipal Júpiter,1989,C Agricultura,10.0,Sant Martí,41.41773642679194,2.202020779488626
Jardins de Magalí,1985,C Vallespir,4.0,Les Corts,41.38491336528375,2.1335326462367803
Jardins de Magalí,1985,C Vallespir,4.0,Les Corts,41.38491336528375,2.1335326462367803
Oficina de l'Habitatge de Ciutat Vella,1990,Pl Salvador Seguí,1.0,Ciutat Vella,41.37907337154925,2.1707222863566704
Oficina de l'Habitatge de Ciutat Vella,1990,Pl Salvador Seguí,1.0,Ciutat Vella,41.37907337154925,2.1707222863566704
Oficina d'Atenció Ciutadana del Districte de Ciutat Vella,1993,C Ramelleres,1.0,Ciutat Vella,41.38426499513298,2.168636689437057
Oficina d'Atenció Ciutadana del Districte de Ciutat Vella,1993,C Ramelleres,1.0,Ciutat Vella,41.38426499513298,2.168636689437057
Oficina d'Atenció Ciutadana del Districte d'Horta - Guinardó,1993,C Lepant,7.0,Horta-Guinardó,41.40999114089914,2.169209059636639
Oficina d'Atenció Ciutadana del Districte d'Horta - Guinardó,1993,C Lepant,7.0,Horta-Guinardó,41.40999114089914,2.169209059636639
Castell de Montjuïc,1999,Ctra Montjuïc,3.0,Sants-Montjuïc,41.36446421195711,2.1671241451784176
Casal de Gent Gran del Poble-sec,1985,Plaça del Sortidor,3.0,Sants-Montjuïc,41.37209842165101,2.162548215783544
Casal de Gent Gran del Poble-sec,1985,Plaça del Sortidor,3.0,Sants-Montjuïc,41.37209842165101,2.162548215783544
Museu Frederic Marès,1984,Pl Sant Iu,1.0,Ciutat Vella,41.38425937092706,2.176788148373407
Museu Frederic Marès,1984,Pl Sant Iu,1.0,Ciutat Vella,41.38425937092706,2.176788148373407
Museu Frederic Marès,1984,Pl Sant Iu,1.0,Ciutat Vella,41.38425937092706,2.176788148373407
Jardins de la Casa Elizalde,2003,Carrer de València,2.0,Eixample,41.39451893034836,2.1659008246716773
Jardins de la Casa Elizalde,2003,Carrer de València,2.0,Eixample,41.39451893034836,2.1659008246716773
Jardins de la Casa Elizalde,2003,Carrer de València,2.0,Eixample,41.39451893034836,2.1659008246716773
Centre Esportiu Municipal Can Caralleu,1989,C Esports,5.0,Sarrià-Sant Gervasi,41.40098699374352,2.1105047906383008
Centre Esportiu Municipal Can Caralleu,1989,C Esports,5.0,Sarrià-Sant Gervasi,41.40098699374352,2.1105047906383008
Centre Esportiu Municipal Can Caralleu,1989,C Esports,5.0,Sarrià-Sant Gervasi,41.40098699374352,2.1105047906383008
Centre Esportiu Municipal Can Caralleu,1989,C Esports,5.0,Sarrià-Sant Gervasi,41.40098699374352,2.1105047906383008
Centre Esportiu Municipal Can Caralleu,1989,C Esports,5.0,Sarrià-Sant Gervasi,41.40098699374352,2.1105047906383008
Centre Esportiu Municipal Can Caralleu,1989,C Esports,5.0,Sarrià-Sant Gervasi,41.40098699374352,2.1105047906383008
Centre Esportiu Municipal Can Caralleu,1989,C Esports,5.0,Sarrià-Sant Gervasi,41.40098699374352,2.1105047906383008
Centre Esportiu Municipal Can Caralleu,1989,C Esports,5.0,Sarrià-Sant Gervasi,41.40098699374352,2.1105047906383008
Centre Esportiu Municipal Can Caralleu,1989,C Esports,5.0,Sarrià-Sant Gervasi,41.40098699374352,2.1105047906383008
Centre Esportiu Municipal Can Caralleu,1989,C Esports,5.0,Sarrià-Sant Gervasi,41.40098699374352,2.1105047906383008
Centre Esportiu Municipal Can Caralleu,1989,C Esports,5.0,Sarrià-Sant Gervasi,41.40098699374352,2.1105047906383008
Roserar,1996,Av Diagonal,4.0,Les Corts,41.383249608584585,2.1067422056819427
Unitat Territorial de la Guàrdia Urbana del Districte de Ciutat Vella - Oficina de Recepció de Denúncies,1995,C la Rambla,1.0,Ciutat Vella,41.37959891691606,2.1744008204798737
Unitat Territorial de la Guàrdia Urbana del Districte de Ciutat Vella - Oficina de Recepció de Denúncies,1995,C la Rambla,1.0,Ciutat Vella,41.37959891691606,2.1744008204798737
Casal de Gent Gran Turó de la Peira,1987,C Doctor Pi i Molist,8.0,Nou Barris,41.432841012686985,2.1733368209384825
Casal de Gent Gran Turó de la Peira,1987,C Doctor Pi i Molist,8.0,Nou Barris,41.432841012686985,2.1733368209384825
Centre Cívic Can Basté,1995,Passeig de Fabra i Puig,8.0,Nou Barris,41.4304874584176,2.173233437180801
Centre Cívic Can Basté,1995,Passeig de Fabra i Puig,8.0,Nou Barris,41.4304874584176,2.173233437180801
Oficina d'Atenció Ciutadana del Districte de l'Eixample,1994,C Aragó,2.0,Eixample,41.39547478812744,2.169520702953825
Oficina d'Atenció Ciutadana del Districte de l'Eixample,1994,C Aragó,2.0,Eixample,41.39547478812744,2.169520702953825
Punt de connexió Barcelona WiFi a la cruïlla del carrer Llacuna amb l'Avinguda Diagonal,2012,C Llacuna,10.0,Sant Martí,41.40465018249037,2.194116567661363
Centre Esportiu Municipal l'Espanya Industrial,1993,C Muntadas,3.0,Sants-Montjuïc,41.37671146324603,2.142397968303214
Centre Esportiu Municipal l'Espanya Industrial,1993,C Muntadas,3.0,Sants-Montjuïc,41.37671146324603,2.142397968303214
Centre Esportiu Municipal l'Espanya Industrial,1993,C Muntadas,3.0,Sants-Montjuïc,41.37671146324603,2.142397968303214
Centre Esportiu Municipal l'Espanya Industrial,1993,C Muntadas,3.0,Sants-Montjuïc,41.37671146324603,2.142397968303214
Centre Esportiu Municipal l'Espanya Industrial,1993,C Muntadas,3.0,Sants-Montjuïc,41.37671146324603,2.142397968303214
Centre Esportiu Municipal l'Espanya Industrial,1993,C Muntadas,3.0,Sants-Montjuïc,41.37671146324603,2.142397968303214
Centre Esportiu Municipal l'Espanya Industrial,1993,C Muntadas,3.0,Sants-Montjuïc,41.37671146324603,2.142397968303214
Centre Esportiu Municipal l'Espanya Industrial,1993,C Muntadas,3.0,Sants-Montjuïc,41.37671146324603,2.142397968303214
Centre Esportiu Municipal l'Espanya Industrial,1993,C Muntadas,3.0,Sants-Montjuïc,41.37671146324603,2.142397968303214
Centre Esportiu Municipal l'Espanya Industrial,1993,C Muntadas,3.0,Sants-Montjuïc,41.37671146324603,2.142397968303214
Centre Esportiu Municipal l'Espanya Industrial,1993,C Muntadas,3.0,Sants-Montjuïc,41.37671146324603,2.142397968303214
Centre Esportiu Municipal l'Espanya Industrial,1993,C Muntadas,3.0,Sants-Montjuïc,41.37671146324603,2.142397968303214
Centre Cívic Font de la Guatlla,1994,Carrer del Rabí Rubèn,3.0,Sants-Montjuïc,41.370587440986846,2.147525318360155
Centre Cívic Font de la Guatlla,1994,Carrer del Rabí Rubèn,3.0,Sants-Montjuïc,41.370587440986846,2.147525318360155
Centre Esportiu Municipal  Colom,1992,C la Rambla,1.0,Ciutat Vella,41.37800007703834,2.176265682413314
Centre Esportiu Municipal  Colom,1992,C la Rambla,1.0,Ciutat Vella,41.37800007703834,2.176265682413314
Centre Esportiu Municipal  Colom,1992,C la Rambla,1.0,Ciutat Vella,41.37800007703834,2.176265682413314
Centre Esportiu Municipal  Colom,1992,C la Rambla,1.0,Ciutat Vella,41.37800007703834,2.176265682413314
Centre Esportiu Municipal  Colom,1992,C la Rambla,1.0,Ciutat Vella,41.37800007703834,2.176265682413314
Centre Esportiu Municipal  Colom,1992,C la Rambla,1.0,Ciutat Vella,41.37800007703834,2.176265682413314
Centre Esportiu Municipal  Colom,1992,C la Rambla,1.0,Ciutat Vella,41.37800007703834,2.176265682413314
Centre Esportiu Municipal  Colom,1992,C la Rambla,1.0,Ciutat Vella,41.37800007703834,2.176265682413314
Centre Esportiu Municipal  Colom,1992,C la Rambla,1.0,Ciutat Vella,41.37800007703834,2.176265682413314
Centre Esportiu Municipal  Colom,1992,C la Rambla,1.0,Ciutat Vella,41.37800007703834,2.176265682413314
Oficina d'Atenció Ciutadana del Districte de Sants - Montjuïc,1993,Creu Coberta,3.0,Sants-Montjuïc,41.37540877957255,2.142274452101212
Oficina d'Atenció Ciutadana del Districte de Sants - Montjuïc,1993,Creu Coberta,3.0,Sants-Montjuïc,41.37540877957255,2.142274452101212
Oficina d'Atenció Ciutadana de la plaça Sant Miquel,1991,Pl Sant Miquel,1.0,Ciutat Vella,41.38172908411544,2.1776421611468937
Oficina d'Atenció Ciutadana de la plaça Sant Miquel,1991,Pl Sant Miquel,1.0,Ciutat Vella,41.38172908411544,2.1776421611468937
El Centre de la Platja,2005,Pg Marítim Barceloneta,1.0,Ciutat Vella,41.38321872603325,2.1950192542461915
Punt de connexió Barcelona WiFi a la cruïlla de l'Avinguda Josep Vicenç Foix amb Trinquet,2012,Av J V Foix,5.0,Sarrià-Sant Gervasi,41.39668687970741,2.1205150544940863
Punt de connexió Barcelona WiFi a la cruïlla del carrer Conca amb el Passeig Maragall,2012,C Freser,10.0,Sant Martí,41.41346820117,2.181290554357237
Punt de connexió Barcelona WiFi a la cruïlla de la Ronda del Guinardó amb Sardenya,2012,Rda Guinardó,6.0,Gràcia,41.41259577333199,2.161965201449457
Punt de connexió Barcelona WiFi a la cruïlla dels carrers Rocafort amb Provença,2014,C Rocafort,2.0,Eixample,41.38371324103549,2.147317399191454
Centre Esportiu Municipal Les Corts,1999,Trav Corts,4.0,Les Corts,41.38540957993892,2.1335979261241165
Centre Esportiu Municipal Les Corts,1999,Trav Corts,4.0,Les Corts,41.38540957993892,2.1335979261241165
Centre Esportiu Municipal Les Corts,1999,Trav Corts,4.0,Les Corts,41.38540957993892,2.1335979261241165
Centre Esportiu Municipal Les Corts,1999,Trav Corts,4.0,Les Corts,41.38540957993892,2.1335979261241165
Casal de Gent Gran Carlit,1995,C Roger de Flor,2.0,Eixample,41.39740416859099,2.174726182535123
Casal de Gent Gran Carlit,1995,C Roger de Flor,2.0,Eixample,41.39740416859099,2.174726182535123
Centre Cívic Sagrada Família,2001,Carrer de Provença,2.0,Eixample,41.40541560676076,2.1767746457391186
Centre Cívic Sagrada Família,2001,Carrer de Provença,2.0,Eixample,41.40541560676076,2.1767746457391186
Punt de connexió Barcelona WiFi a la plaça Pius XII,2011,Pl Pius XII,4.0,Les Corts,41.387253217067226,2.1225649049615862
Punt de connexió Barcelona WiFi a la cruïlla de la Rambla Prim amb el carrer Llull,2011,C Llull,10.0,Sant Martí,41.41234353465995,2.217466260147495
Punt de connexió Barcelona WiFi a la cruïlla del carrer Josep Pla amb Avinguda Diagonal,2011,C Josep Pla,10.0,Sant Martí,41.41032680366519,2.2141662312009123
Punt de connexió Barcelona WiFi a la cruïlla dels carrers Comte Borrell amb Sepúlveda,2012,C Sepúlveda,2.0,Eixample,41.38064545694295,2.1588996091673645
Punt de connexió Barcelona WiFi a la cruïlla dels carrers Viladomat amb Sepúlveda,2012,C Viladomat,2.0,Eixample,41.3795894078639,2.157284463027372
Punt de connexió Barcelona WiFi a la cruïlla dels carrers Rocafort amb Floridablanca,2012,C Rocafort,2.0,Eixample,41.37709448850335,2.156086759800853
Casal de Gent Gran Can Novell,2005,C Caballero,4.0,Les Corts,41.38239409665221,2.1342707078350727
Casal de Gent Gran Can Novell,2005,C Caballero,4.0,Les Corts,41.38239409665221,2.1342707078350727
Espai Jove del Coll,1995,Duran i Borrell,6.0,Gràcia,41.41863651080554,2.1497718264466146
Espai Jove del Coll,1995,Duran i Borrell,6.0,Gràcia,41.41863651080554,2.1497718264466146
Centre Esportiu Municipal Claror,1988,C Sardenya,6.0,Gràcia,41.40465279519629,2.171529006740009
Centre Esportiu Municipal Claror,1988,C Sardenya,6.0,Gràcia,41.40465279519629,2.171529006740009
Centre Esportiu Municipal Claror,1988,C Sardenya,6.0,Gràcia,41.40465279519629,2.171529006740009
Centre Esportiu Municipal Claror,1988,C Sardenya,6.0,Gràcia,41.40465279519629,2.171529006740009
Centre Esportiu Municipal Claror,1988,C Sardenya,6.0,Gràcia,41.40465279519629,2.171529006740009
Centre Esportiu Municipal Claror,1988,C Sardenya,6.0,Gràcia,41.40465279519629,2.171529006740009
Centre Esportiu Municipal Claror,1988,C Sardenya,6.0,Gràcia,41.40465279519629,2.171529006740009
Centre Esportiu Municipal Claror,1988,C Sardenya,6.0,Gràcia,41.40465279519629,2.171529006740009
Centre Esportiu Municipal Claror,1988,C Sardenya,6.0,Gràcia,41.40465279519629,2.171529006740009
Centre Esportiu Municipal Claror,1988,C Sardenya,6.0,Gràcia,41.40465279519629,2.171529006740009
Centre Esportiu Municipal Claror,1988,C Sardenya,6.0,Gràcia,41.40465279519629,2.171529006740009
Centre Esportiu Municipal Claror,1988,C Sardenya,6.0,Gràcia,41.40465279519629,2.171529006740009
Centre Esportiu Municipal Claror,1988,C Sardenya,6.0,Gràcia,41.40465279519629,2.171529006740009
Centre de Cultura Contemporània de Barcelona,1994,C Montalegre,1.0,Ciutat Vella,41.38391450226559,2.1668129104163323
Oficina d'Atenció Ciutadana del Districte de Nou Barris,1993,Pl Major de Nou Barris,8.0,Nou Barris,41.4368445525108,2.1712296246319656
Oficina d'Atenció Ciutadana del Districte de Nou Barris,1993,Pl Major de Nou Barris,8.0,Nou Barris,41.4368445525108,2.1712296246319656
Pavelló Poliesportiu Municipal Creueta del Coll,2001,C Castellterçol,6.0,Gràcia,41.41703173976187,2.1458404974974576
Pavelló Poliesportiu Municipal Creueta del Coll,2001,C Castellterçol,6.0,Gràcia,41.41703173976187,2.1458404974974576
Pavelló Poliesportiu Municipal Creueta del Coll,2001,C Castellterçol,6.0,Gràcia,41.41703173976187,2.1458404974974576
Pavelló Poliesportiu Municipal Creueta del Coll,2001,C Castellterçol,6.0,Gràcia,41.41703173976187,2.1458404974974576
Pavelló Poliesportiu Municipal Creueta del Coll,2001,C Castellterçol,6.0,Gràcia,41.41703173976187,2.1458404974974576
Pavelló Poliesportiu Municipal Creueta del Coll,2001,C Castellterçol,6.0,Gràcia,41.41703173976187,2.1458404974974576
Pavelló Poliesportiu Municipal Creueta del Coll,2001,C Castellterçol,6.0,Gràcia,41.41703173976187,2.1458404974974576
Casal de Gent Gran Josep Tarradellas,1992,Pl Caramelles,1.0,Ciutat Vella,41.38197223223625,2.167164016816572
Casal de Gent Gran Josep Tarradellas,1992,Pl Caramelles,1.0,Ciutat Vella,41.38197223223625,2.167164016816572
Parc de l'Estació del Nord,1988,Carrer de Nàpols,2.0,Eixample,41.39367157911195,2.1839578397165678
Parc de l'Estació del Nord,1988,Carrer de Nàpols,2.0,Eixample,41.39367157911195,2.1839578397165678
Parc de la Creueta del Coll,1987,Pg Mare de Déu del Coll,6.0,Gràcia,41.419264262411424,2.1462520569914063
Parc de la Creueta del Coll,1987,Pg Mare de Déu del Coll,6.0,Gràcia,41.419264262411424,2.1462520569914063
Platja de la Barceloneta,1989,Passeig Marítim de la Barceloneta,1.0,Ciutat Vella,41.37861435600187,2.192222242417201
Parc de Can Sabaté,1989,C Mineria,3.0,Sants-Montjuïc,41.36437449049291,2.137749555318519
Parc de Can Sabaté,1989,C Mineria,3.0,Sants-Montjuïc,41.36437449049291,2.137749555318519
Centre Esportiu Municipal Nova Icària,1992,Av Icària,10.0,Sant Martí,41.3923938824674,2.19802081368745
Centre Esportiu Municipal Nova Icària,1992,Av Icària,10.0,Sant Martí,41.3923938824674,2.19802081368745
Centre Esportiu Municipal Nova Icària,1992,Av Icària,10.0,Sant Martí,41.3923938824674,2.19802081368745
Centre Esportiu Municipal Nova Icària,1992,Av Icària,10.0,Sant Martí,41.3923938824674,2.19802081368745
Centre Esportiu Municipal Nova Icària,1992,Av Icària,10.0,Sant Martí,41.3923938824674,2.19802081368745
Centre Esportiu Municipal Nova Icària,1992,Av Icària,10.0,Sant Martí,41.3923938824674,2.19802081368745
Centre Esportiu Municipal Nova Icària,1992,Av Icària,10.0,Sant Martí,41.3923938824674,2.19802081368745
Centre Esportiu Municipal Nova Icària,1992,Av Icària,10.0,Sant Martí,41.3923938824674,2.19802081368745
Centre Esportiu Municipal Nova Icària,1992,Av Icària,10.0,Sant Martí,41.3923938824674,2.19802081368745
Centre Esportiu Municipal Nova Icària,1992,Av Icària,10.0,Sant Martí,41.3923938824674,2.19802081368745
Centre Esportiu Municipal Nova Icària,1992,Av Icària,10.0,Sant Martí,41.3923938824674,2.19802081368745
Centre Esportiu Municipal Nova Icària,1992,Av Icària,10.0,Sant Martí,41.3923938824674,2.19802081368745
Centre Cívic Pati Llimona,1991,Carrer del Regomir,1.0,Ciutat Vella,41.38166820304256,2.179188796546561
Centre Cívic Pati Llimona,1991,Carrer del Regomir,1.0,Ciutat Vella,41.38166820304256,2.179188796546561
Punt de connexió Barcelona WiFi a la cruïlla del carrer d'Enric Granados amb carrer Provença,2014,C Enric Granados,2.0,Eixample,41.391381117020366,2.1575063202638325
Punt de connexió Barcelona WiFi a la cruïlla del carrer d'Enric Granados amb carrer Consell de Cent,2014,C Enric Granados,2.0,Eixample,41.38794631261168,2.1620421505658705
"Punt de connexió Barcelona WiFi al carrer Felip II, 212",2014,C Felip II,9.0,Sant Andreu,41.42684185990019,2.1787900182082303
Punt de connexió Barcelona WiFi a la cruïlla del carrer de Ganduxer amb Via Augusta,2014,C Ganduxer,5.0,Sarrià-Sant Gervasi,41.39761377762103,2.135401368382123
Punt de connexió Barcelona WiFi a la cruïlla del carrer Indústria amb carrer Conca,2014,C Indústria,10.0,Sant Martí,41.41349770197555,2.1796204149448344
El Punt - Punt infoJOVE de Sants-Montjuïc,1998,Carrer de Muntadas,3.0,Sants-Montjuïc,41.37749032961892,2.1407478666950324
Centre Cívic Sarrià,1984,Carrer d'Eduardo Conde,5.0,Sarrià-Sant Gervasi,41.3939061996762,2.1211872573336934
Centre Cívic Sarrià,1984,Carrer d'Eduardo Conde,5.0,Sarrià-Sant Gervasi,41.3939061996762,2.1211872573336934
Espai de Gent Gran Fort Pienc,1999,Pl Fort Pienc,2.0,Eixample,41.39558658720727,2.182465058010549
Espai de Gent Gran Fort Pienc,1999,Pl Fort Pienc,2.0,Eixample,41.39558658720727,2.182465058010549
Centre Esportiu Municipal de La Verneda,1989,C Binèfar,10.0,Sant Martí,41.42525938943904,2.204474912816305
Centre Esportiu Municipal de La Verneda,1989,C Binèfar,10.0,Sant Martí,41.42525938943904,2.204474912816305
Centre Esportiu Municipal de La Verneda,1989,C Binèfar,10.0,Sant Martí,41.42525938943904,2.204474912816305
Centre Esportiu Municipal de La Verneda,1989,C Binèfar,10.0,Sant Martí,41.42525938943904,2.204474912816305
Centre Esportiu Municipal de La Verneda,1989,C Binèfar,10.0,Sant Martí,41.42525938943904,2.204474912816305
Centre Esportiu Municipal de La Verneda,1989,C Binèfar,10.0,Sant Martí,41.42525938943904,2.204474912816305
Centre Esportiu Municipal de La Verneda,1989,C Binèfar,10.0,Sant Martí,41.42525938943904,2.204474912816305
Centre Esportiu Municipal de La Verneda,1989,C Binèfar,10.0,Sant Martí,41.42525938943904,2.204474912816305
Centre Esportiu Municipal de La Verneda,1989,C Binèfar,10.0,Sant Martí,41.42525938943904,2.204474912816305
Centre Cívic Vil·la Florida,2007,Carrer de Muntaner,5.0,Sarrià-Sant Gervasi,41.40536533899808,2.135308972460361
Centre Cívic Vil·la Florida,2007,Carrer de Muntaner,5.0,Sarrià-Sant Gervasi,41.40536533899808,2.135308972460361
Centre Esportiu Municipal Olímpics Vall Hebron,1992,Pg Vall d'Hebron,7.0,Horta-Guinardó,41.42789677307302,2.1452465998415344
Centre Esportiu Municipal Olímpics Vall Hebron,1992,Pg Vall d'Hebron,7.0,Horta-Guinardó,41.42789677307302,2.1452465998415344
Centre Esportiu Municipal Olímpics Vall Hebron,1992,Pg Vall d'Hebron,7.0,Horta-Guinardó,41.42789677307302,2.1452465998415344
Centre Esportiu Municipal Olímpics Vall Hebron,1992,Pg Vall d'Hebron,7.0,Horta-Guinardó,41.42789677307302,2.1452465998415344
Centre Esportiu Municipal Olímpics Vall Hebron,1992,Pg Vall d'Hebron,7.0,Horta-Guinardó,41.42789677307302,2.1452465998415344
Centre Esportiu Municipal Olímpics Vall Hebron,1992,Pg Vall d'Hebron,7.0,Horta-Guinardó,41.42789677307302,2.1452465998415344
Centre Esportiu Municipal Olímpics Vall Hebron,1992,Pg Vall d'Hebron,7.0,Horta-Guinardó,41.42789677307302,2.1452465998415344
Centre Esportiu Municipal Olímpics Vall Hebron,1992,Pg Vall d'Hebron,7.0,Horta-Guinardó,41.42789677307302,2.1452465998415344
Centre Esportiu Municipal Olímpics Vall Hebron,1992,Pg Vall d'Hebron,7.0,Horta-Guinardó,41.42789677307302,2.1452465998415344
Centre Esportiu Municipal Olímpics Vall Hebron,1992,Pg Vall d'Hebron,7.0,Horta-Guinardó,41.42789677307302,2.1452465998415344
Centre Esportiu Municipal Olímpics Vall Hebron,1992,Pg Vall d'Hebron,7.0,Horta-Guinardó,41.42789677307302,2.1452465998415344
Centre Esportiu Municipal Olímpics Vall Hebron,1992,Pg Vall d'Hebron,7.0,Horta-Guinardó,41.42789677307302,2.1452465998415344
Punt de connexió Barcelona WiFi a la cruïlla del carrer Casanova amb carrer Mallorca,2014,C Casanova,2.0,Eixample,41.38815448417903,2.1553874246930893
Punt de connexió Barcelona WiFi a la cruïlla del carrer Aragó amb Bruc,2014,C Aragó,2.0,Eixample,41.39493735125897,2.1682711245441744
Casal de Gent Gran Bon Pastor,1985,C Alfarràs,9.0,Sant Andreu,41.43801228301035,2.204991748427383
Casal de Gent Gran Bon Pastor,1985,C Alfarràs,9.0,Sant Andreu,41.43801228301035,2.204991748427383
Punt de connexió Barcelona WiFi a la cruïlla del carrer d'Enric Granados amb carrer Rosselló,2014,C Enric Granados,2.0,Eixample,41.39225370706164,2.156368800810521
Punt de connexió Barcelona WiFi a la cruïlla dels carrers Entença amb carrer València,2014,C Entença,2.0,Eixample,41.381172770112926,2.148429193561689
Punt de connexió Barcelona WiFi a la cruïlla del carrer Girona amb carrer c. d'Ausiàs Marc,2014,C Girona,2.0,Eixample,41.39111793574249,2.175898114141778
Punt de connexió Barcelona WiFi a la cruïlla de la Gran Via de Carles III amb Masferrer,2014,G.V. Carles III,4.0,Les Corts,41.38479873940353,2.127702292638843
Punt de connexió Barcelona WiFi a la cruïlla del carrer Indústria amb carrer del Guinardó,2014,C Indústria,10.0,Sant Martí,41.41531403500152,2.1820269356852053
Punt de connexió Barcelona WiFi a la cruïlla del carrer de Joan Güell amb Trav. de les Corts,2014,C Joan Güell,4.0,Les Corts,41.38399033374525,2.1311238345257606
Punt de connexió Barcelona WiFi al  Marià Aguilo cruïlla Camí Antic de València,2014,C Marià Aguiló,10.0,Sant Martí,41.40379957835931,2.199436307435502
Punt de connexió Barcelona WiFi a la cruïlla de la Rambla del Poblenou amb el carrer Ramón Turró,2014,Rbla Poblenou,10.0,Sant Martí,41.39973484968157,2.2032499811312385
Jardins d'Interior d'Illa de Gaietà Renom,2008,C Montnegre,4.0,Les Corts,41.388228506917976,2.139411091038567
Jardins d'Interior d'Illa de Gaietà Renom,2008,C Montnegre,4.0,Les Corts,41.388228506917976,2.139411091038567
Punt de connexió Barcelona WiFi a la cruïlla del carrer Balmes amb Còrsega,2014,C Balmes,2.0,Eixample,41.39396163927941,2.156357912841831
Punt de connexió Barcelona WiFi a la cruïlla del carrer Marina amb Casp,2014,C Marina,2.0,Eixample,41.39784619281272,2.182530597374733
Punt de connexió Barcelona WiFi a la cruïlla del carrer Felip II amb Puerto Príncipe,2014,C Felip II,9.0,Sant Andreu,41.42402639816429,2.181928885774836
Punt de connexió Barcelona WiFi a la cruïlla del carrer de Joan Güell amb Joaquim Molins,2014,C Joan Güell,4.0,Les Corts,41.38606840158177,2.1299572859234632
"Punt de connexió Barcelona WiFi al carrer Lepant, 387",2014,C Lepant,7.0,Horta-Guinardó,41.40999114089914,2.169209059636639
Punt de connexió Barcelona WiFi a la cruïlla de l'Avinguda Marquès d'Argentera amb Pescateria,2013,C Pescateria,1.0,Ciutat Vella,41.38407937125521,2.1841872408943592
Punt de connexió Barcelona WiFi a la cruïlla del c. Vilamarí amb la Gran Via de les Corts Catalanes,2012,G.V. Corts Catalanes,2.0,Eixample,41.376978304950576,2.151621186976875
Punt de connexió Barcelona WiFi a la cruïlla de Bac de Roda amb Ramón Turró,2014,C Bac de Roda,10.0,Sant Martí,41.40403653264483,2.2088334421302798
Punt de connexió Barcelona WiFi a la cruïlla del carrer Bilbao amb  Llull,2014,C Bilbao,10.0,Sant Martí,41.40238689007208,2.204896714047769
Punt de connexió Barcelona WiFi a la cruïlla del carrer Castella amb Bolívia,2014,C Castella,10.0,Sant Martí,41.40656365571956,2.19653835259173
Punt de connexió Barcelona WiFi a la cruïlla del carrer Castella amb Passatge Burrull,2014,C Castella,10.0,Sant Martí,41.40499857758527,2.197876160465242
Punt de connexió Barcelona WiFi a la cruïlla del carrer Espronceda amb Ramon Turro,2014,C Espronceda,10.0,Sant Martí,41.40372207148172,2.20700773776858
Centre Cívic Can Castelló,2007,Carrer de Castelló,5.0,Sarrià-Sant Gervasi,41.39904051559379,2.140179532716965
Centre Cívic Can Castelló,2007,Carrer de Castelló,5.0,Sarrià-Sant Gervasi,41.39904051559379,2.140179532716965
Punt de connexió Barcelona WiFi a la cruïlla dels carrers Calàbria amb carrer París,2014,C Calàbria,2.0,Eixample,41.38724457421331,2.145258686557776
Punt de connexió Barcelona WiFi a la cruïlla dels carrers Calàbria amb carrer Rosselló,2014,C Calàbria,2.0,Eixample,41.3855421948865,2.147521247311546
Punt de connexió Barcelona WiFi a la cruïlla del carrer Calvet amb carrer de la Reina Victòria,2014,C Calvet,5.0,Sarrià-Sant Gervasi,41.39687153183395,2.141152448130015
Punt de connexió Barcelona WiFi a la cruïlla del carrer Cartagena amb carrer del Consell de Cent,2014,C Cartagena,2.0,Eixample,41.404157262963,2.183829180015047
Punt de connexió Barcelona WiFi a la cruïlla del carrer Casanova amb carrer Londres,2014,C Casanova,2.0,Eixample,41.39233354759122,2.1498387555426817
Casal de Barri Congrés-Indians,1991,C Manigua,9.0,Sant Andreu,41.42401480894652,2.1794377597250114
Casal de Barri Congrés-Indians,1991,C Manigua,9.0,Sant Andreu,41.42401480894652,2.1794377597250114
Punt de connexió Barcelona WiFi a la cruïlla del carrer Espronceda amb Passeig Taulat,2011,Pg Taulat,10.0,Sant Martí,41.40199881128783,2.209113500211215
Sala d'Actes,1985,Pl Bonet i Muixí,3.0,Sants-Montjuïc,41.37462786638933,2.1364102397098232
Centre Cívic Ateneu Fort Pienc,1999,Plaça de Fort Pienc,2.0,Eixample,41.39558658720727,2.182465058010549
Centre Cívic Ateneu Fort Pienc,1999,Plaça de Fort Pienc,2.0,Eixample,41.39558658720727,2.182465058010549
Centre Cívic Torre Llobeta,1984,Carrer de Santa Fe,8.0,Nou Barris,41.42693150965028,2.173966250593847
Centre Cívic Torre Llobeta,1984,Carrer de Santa Fe,8.0,Nou Barris,41.42693150965028,2.173966250593847
Centre Municipal Tennis Vall Hebron,1992,Pg Vall d'Hebron,7.0,Horta-Guinardó,41.429780964283566,2.1455154160299195
Centre Municipal Tennis Vall Hebron,1992,Pg Vall d'Hebron,7.0,Horta-Guinardó,41.429780964283566,2.1455154160299195
Centre Municipal Tennis Vall Hebron,1992,Pg Vall d'Hebron,7.0,Horta-Guinardó,41.429780964283566,2.1455154160299195
Centre Municipal Tennis Vall Hebron,1992,Pg Vall d'Hebron,7.0,Horta-Guinardó,41.429780964283566,2.1455154160299195
Centre Municipal Tennis Vall Hebron,1992,Pg Vall d'Hebron,7.0,Horta-Guinardó,41.429780964283566,2.1455154160299195
Centre Municipal Tennis Vall Hebron,1992,Pg Vall d'Hebron,7.0,Horta-Guinardó,41.429780964283566,2.1455154160299195
Centre Municipal Tennis Vall Hebron,1992,Pg Vall d'Hebron,7.0,Horta-Guinardó,41.429780964283566,2.1455154160299195
Centre Municipal Tennis Vall Hebron,1992,Pg Vall d'Hebron,7.0,Horta-Guinardó,41.429780964283566,2.1455154160299195
Centre Municipal Tennis Vall Hebron,1992,Pg Vall d'Hebron,7.0,Horta-Guinardó,41.429780964283566,2.1455154160299195
Centre Cívic l'Elèctric,1995,Carretera de Vallvidrera a les Planes,5.0,Sarrià-Sant Gervasi,41.41916775040489,2.0978915121246664
Centre Cívic l'Elèctric,1995,Carretera de Vallvidrera a les Planes,5.0,Sarrià-Sant Gervasi,41.41916775040489,2.0978915121246664
Punt de connexió Barcelona WiFi a la cruïlla del carrer Provença amb Passeig de Sant Joan,2014,C Provença,2.0,Eixample,41.40072372463685,2.1696051238315595
Punt de connexió Barcelona WiFi a la cruïlla del carrer Roger de Flor amb carrer Consell de Cent,2014,C Roger de Flor,2.0,Eixample,41.3974542067752,2.174657400501164
Punt de connexió Barcelona WiFi a la cruïlla del carrer Roger de Llúria amb carrer València,2014,C Roger de Llúria,2.0,Eixample,41.395208590619866,2.1659690178482287
Punt de connexió Barcelona WiFi a la cruïlla dels carrer Rocafort amb carrer Consell de Cent,2014,C Rocafort,2.0,Eixample,41.380304069360896,2.1518356703024253
Auditori Sant Martí,2014,Pl Angeleta Ferrer,10.0,Sant Martí,41.416235289112166,2.1991348465828184
Auditori Sant Martí,2014,Pl Angeleta Ferrer,10.0,Sant Martí,41.416235289112166,2.1991348465828184
Espai de Gent Gran de l'Esquerra de l'Eixample,2004,C Rosselló,2.0,Eixample,41.386881714541005,2.148950899891363
Espai de Gent Gran de l'Esquerra de l'Eixample,2004,C Rosselló,2.0,Eixample,41.386881714541005,2.148950899891363
Centre Esportiu Municipal Can Toda,1989,C Ramiro de Maeztu,6.0,Gràcia,41.415382668167865,2.1581717417338337
Centre Esportiu Municipal Can Toda,1989,C Ramiro de Maeztu,6.0,Gràcia,41.415382668167865,2.1581717417338337
Centre Esportiu Municipal Can Toda,1989,C Ramiro de Maeztu,6.0,Gràcia,41.415382668167865,2.1581717417338337
Centre Esportiu Municipal Can Toda,1989,C Ramiro de Maeztu,6.0,Gràcia,41.415382668167865,2.1581717417338337
Centre Esportiu Municipal Can Toda,1989,C Ramiro de Maeztu,6.0,Gràcia,41.415382668167865,2.1581717417338337
Centre Esportiu Municipal Can Toda,1989,C Ramiro de Maeztu,6.0,Gràcia,41.415382668167865,2.1581717417338337
Centre Esportiu Municipal Can Toda,1989,C Ramiro de Maeztu,6.0,Gràcia,41.415382668167865,2.1581717417338337
Centre Esportiu Municipal Can Toda,1989,C Ramiro de Maeztu,6.0,Gràcia,41.415382668167865,2.1581717417338337
Centre Esportiu Municipal Can Toda,1989,C Ramiro de Maeztu,6.0,Gràcia,41.415382668167865,2.1581717417338337
Centre Esportiu Municipal Can Toda,1989,C Ramiro de Maeztu,6.0,Gràcia,41.415382668167865,2.1581717417338337
Jardins de les Tres Xemeneies,1995,Av Paral.lel,3.0,Sants-Montjuïc,41.374483270295705,2.172430025242432
Jardins de les Tres Xemeneies,1995,Av Paral.lel,3.0,Sants-Montjuïc,41.374483270295705,2.172430025242432
Casal de Barri Torre Baró,2005,Av Escolapi Càncer,8.0,Nou Barris,41.45985515543624,2.1813516060924187
Casal de Barri Torre Baró,2005,Av Escolapi Càncer,8.0,Nou Barris,41.45985515543624,2.1813516060924187
Casal de Barri La Cosa Nostra,2005,C Biure,8.0,Nou Barris,41.43373157668339,2.168051272300547
Casal de Barri La Cosa Nostra,2005,C Biure,8.0,Nou Barris,41.43373157668339,2.168051272300547
Teatre,2006,G.V. Corts Catalanes,10.0,Sant Martí,41.40494645411221,2.188461496328564
Teatre,2006,G.V. Corts Catalanes,10.0,Sant Martí,41.40494645411221,2.188461496328564
Punt de connexió Barcelona WiFi a la cruïlla dels carrers Vilamarí amb carrer València,2014,C Vilamarí,2.0,Eixample,41.38031868260172,2.147302462360335
Punt de connexió Barcelona WiFi a la cruïlla del carrer Villaroel amb carrer Londres,2014,C Villarroel,2.0,Eixample,41.391382586904975,2.148453367211764
Punt de connexió Barcelona WiFi a la cruïlla del carrer Villaroel amb carrer Paris,2014,C Villarroel,2.0,Eixample,41.390671056940384,2.149766570551857
Punt de connexió Barcelona WiFi a la cruïlla del carrer Lepant amb l'Encarnació,2014,C Lepant,7.0,Horta-Guinardó,41.4109928904068,2.1679018781816
Punt de connexió Barcelona WiFi a la cruïlla del carrer Vilamarí amb Diputació,2014,C Vilamarí,2.0,Eixample,41.37833220891342,2.15029871277913
Local Social Raimon Casellas,1997,C José Millán González,7.0,Horta-Guinardó,41.41632506485064,2.15939376491092
Punt de connexió Barcelona WiFi a la cruïlla de l'Av. Meridiana amb Sant Antoni M. Claret,2012,Av Meridiana,9.0,Sant Andreu,41.420427136817615,2.186507430175706
Arxiu Històric de la Ciutat de Barcelona,1991,C Santa Llúcia,1.0,Ciutat Vella,41.38428528421699,2.175884529907404
Arxiu Històric de la Ciutat de Barcelona,1991,C Santa Llúcia,1.0,Ciutat Vella,41.38428528421699,2.175884529907404
Mercat de La Trinitat,1985,Carrer de la Pedrosa,8.0,Nou Barris,41.44869202746852,2.1842333444483297
Mercat de La Trinitat,1985,Carrer de la Pedrosa,8.0,Nou Barris,41.44869202746852,2.1842333444483297
Platja de Sant Sebastià,1989,Passeig Marítim de la Barceloneta,1.0,Ciutat Vella,41.373706513534366,2.1896792006250663
Punt de connexió Barcelona WiFi a la cruïlla del carrer Paris amb carrer Muntaner,2014,C París,2.0,Eixample,41.39239024642726,2.1513830851802145
Platja de la Nova Icària,1989,Pg Marítim de Nova Icària,10.0,Sant Martí,41.39076474300676,2.2028838890750646
Punt de connexió Barcelona WiFi a la cruïlla dels carrers Rocafort amb carrer Còrsega,2014,C Rocafort,2.0,Eixample,41.38585759637152,2.1444820898004946
Punt de connexió Barcelona WiFi a la cruïlla del carrer Xifré amb carrer Freser,2014,C Xifré,10.0,Sant Martí,41.41136713572549,2.180457778506673
Punt de connexió Barcelona WiFi a la cruïlla del carrer Alcolea amb el Pg. de Sant Antoni,2014,C Alcolea,3.0,Sants-Montjuïc,41.37624517629053,2.136760583612563
Oficina de l'Habitatge de Sants-Montjuïc,1994,C Antoni de Capmany,3.0,Sants-Montjuïc,41.371320988778926,2.131253308235519
Oficina de l'Habitatge de Sants-Montjuïc,1994,C Antoni de Capmany,3.0,Sants-Montjuïc,41.371320988778926,2.131253308235519
Punt de connexió Barcelona WiFi a la cruïlla del carrer de Sants amb el carrer Alcolea,2014,C Sants,3.0,Sants-Montjuïc,41.37551720822598,2.1366049704245382
Punt de connexió Barcelona WiFi a la cruïlla del carrer Santaló amb carrer Descartes,2014,C Santaló,5.0,Sarrià-Sant Gervasi,41.39897559673698,2.1415362335154344
Punt de connexió Barcelona WiFi a la cruïlla del carrer de Sants amb el carrer Premià,2014,C Sants,3.0,Sants-Montjuïc,41.37546588314876,2.139123476152087
Punt de connexió Barcelona WiFi a la cruïlla del carrer Sardenya amb carrer València,2014,C Sardenya,2.0,Eixample,41.40193023139618,2.1751374646179564
Punt de connexió Barcelona WiFi a la cruïlla del carrer Santa Carolina amb Padilla,2014,C Santa Carolina,7.0,Horta-Guinardó,41.41113659104466,2.170519659446061
Punt de connexió Barcelona WiFi a la cruïlla del carrer Santa Agata amb el carrer Gran de Gràcia,2014,C Santa Àgata,6.0,Gràcia,41.404081866640254,2.152125425429529
Punt de connexió Barcelona WiFi a la cruïlla del Pg de Sant Joan amb el carrer Ausiàs Marc,2014,Pg Sant Joan,2.0,Eixample,41.39307649262423,2.1784388949615963
Punt de connexió Barcelona WiFi a la cruïlla del carrer Via Augusta amb carrer Pau Alcover,2014,Via Augusta,5.0,Sarrià-Sant Gervasi,41.39862788833232,2.1257930040858186
Punt de connexió Barcelona WiFi a la cruïlla del carrer Balmes amb carrer del Francolí,2014,C Balmes,5.0,Sarrià-Sant Gervasi,41.40282784199567,2.144896299089745
Punt de connexió Barcelona WiFi a la cruïlla del Pg. de la Bonanova amb carrer de Pomaret,2014,Pg Bonanova,5.0,Sarrià-Sant Gervasi,41.40255886414185,2.1259006367722164
Punt de connexió Barcelona WiFi a la cruïlla de l'Av. Paral·lel amb Comte Borrell,2012,Av Paral.lel,3.0,Sants-Montjuïc,41.3748194551128,2.165586285236515
Punt de connexió Barcelona WiFi a la cruïlla de Padilla amb la Gran Via de les Corts Catalanes,2012,G.V. Corts Catalanes,2.0,Eixample,41.4006057346929,2.183687095349345
Punt de connexió Barcelona WiFi a la cruïlla de Pla de Palau amb el Passeig d'Isabel II,2011,Pla Palau,1.0,Ciutat Vella,41.38274539640427,2.1831827944921485
Punt de connexió Barcelona WiFi a la cruïlla del Passeig de la Vall Hebron i  Pl  Karl Marx,2011,C Mont ral,7.0,Horta-Guinardó,41.439637969139575,2.16156472956659
Punt de connexió Barcelona WiFi a la cruïlla del Passeig de Sant Joan amb Travessera de Gràcia,2011,Trav Gràcia,6.0,Gràcia,41.40454285290244,2.1630181378699582
Centre Esportiu Municipal Can Dragó,1990,C Rosselló i Porcel,8.0,Nou Barris,41.43659306940482,2.183157005742885
Centre Esportiu Municipal Can Dragó,1990,C Rosselló i Porcel,8.0,Nou Barris,41.43659306940482,2.183157005742885
Centre Esportiu Municipal Can Dragó,1990,C Rosselló i Porcel,8.0,Nou Barris,41.43659306940482,2.183157005742885
Centre Esportiu Municipal Can Dragó,1990,C Rosselló i Porcel,8.0,Nou Barris,41.43659306940482,2.183157005742885
Centre Esportiu Municipal Can Dragó,1990,C Rosselló i Porcel,8.0,Nou Barris,41.43659306940482,2.183157005742885
Centre Esportiu Municipal Can Dragó,1990,C Rosselló i Porcel,8.0,Nou Barris,41.43659306940482,2.183157005742885
Centre Esportiu Municipal Can Dragó,1990,C Rosselló i Porcel,8.0,Nou Barris,41.43659306940482,2.183157005742885
Centre Esportiu Municipal Can Dragó,1990,C Rosselló i Porcel,8.0,Nou Barris,41.43659306940482,2.183157005742885
Centre Esportiu Municipal Can Dragó,1990,C Rosselló i Porcel,8.0,Nou Barris,41.43659306940482,2.183157005742885
Centre Esportiu Municipal Can Dragó,1990,C Rosselló i Porcel,8.0,Nou Barris,41.43659306940482,2.183157005742885
Punt de connexió Barcelona WiFi a la cruïlla del carrer Diputació amb Padilla,2012,C Diputació,2.0,Eixample,41.401826317785314,2.1823435601163825
Punt de connexió Barcelona WiFi a la cruïlla del carrer Llacuna amb Llull,2012,C Llacuna,10.0,Sant Martí,41.39963201626356,2.200785610468515
Centre Cívic Trinitat Vella,1986,Carrer de la Foradada,9.0,Sant Andreu,41.45165030524977,2.1912043537124344
Centre Cívic Trinitat Vella,1986,Carrer de la Foradada,9.0,Sant Andreu,41.45165030524977,2.1912043537124344
Punt de connexió Barcelona WiFi a la Plaça de la Font Castellana,2014,Pl Font Castellana,7.0,Horta-Guinardó,41.41542101221005,2.166266172536428
Punt de connexió Barcelona WiFi a la cruïlla del carrer carrer Gran de Gràcia amb Trav. de Gràcia,2014,C Gran de Gràcia,6.0,Gràcia,41.39987170014049,2.1556440837816377
Punt de connexió Barcelona WiFi a la cruïlla de la Ronda del General Mitre amb carrer Septimània,2014,Rda General Mitre,5.0,Sarrià-Sant Gervasi,41.40622840832988,2.148140410584071
Punt de connexió Barcelona WiFi a la cruïlla del carrer Roger de Flor amb Trav. de Gràcia,2014,C Roger de Flor,6.0,Gràcia,41.40514695136186,2.164458073074108
Punt de connexió Barcelona WiFi a la cruïlla del carrer Lepant amb Indústria,2014,C Lepant,2.0,Eixample,41.4076060132045,2.1723349244555847
Centre Cívic Matas i Ramis,1991,Carrer de Feliu i Codina,7.0,Horta-Guinardó,41.43278963946825,2.160723502038599
Centre Cívic Matas i Ramis,1991,Carrer de Feliu i Codina,7.0,Horta-Guinardó,41.43278963946825,2.160723502038599
Punt de connexió Barcelona WiFi a la cruïlla del carrer Bilbao amb Fernando Poo,2011,C Fernando Poo,10.0,Sant Martí,41.4000237507223,2.207194063131655
Centre Cívic Sant Andreu,1984,Carrer Gran de Sant Andreu,9.0,Sant Andreu,41.43088018380354,2.1894124386376466
Centre Cívic Sant Andreu,1984,Carrer Gran de Sant Andreu,9.0,Sant Andreu,41.43088018380354,2.1894124386376466
Casal de Barri de Prosperitat,1988,Pl Àngel Pestaña,8.0,Nou Barris,41.44171279566282,2.179926813319305
Casal de Barri de Prosperitat,1988,Pl Àngel Pestaña,8.0,Nou Barris,41.44171279566282,2.179926813319305
Pavelló Poliesportiu Municipal Virrei Amat - Ramon Aldrufeu,1989,C Joan Alcover,8.0,Nou Barris,41.42938116066023,2.173766830584569
Pavelló Poliesportiu Municipal Virrei Amat - Ramon Aldrufeu,1989,C Joan Alcover,8.0,Nou Barris,41.42938116066023,2.173766830584569
Pavelló Poliesportiu Municipal Virrei Amat - Ramon Aldrufeu,1989,C Joan Alcover,8.0,Nou Barris,41.42938116066023,2.173766830584569
Pavelló Poliesportiu Municipal Virrei Amat - Ramon Aldrufeu,1989,C Joan Alcover,8.0,Nou Barris,41.42938116066023,2.173766830584569
Pavelló Poliesportiu Municipal Virrei Amat - Ramon Aldrufeu,1989,C Joan Alcover,8.0,Nou Barris,41.42938116066023,2.173766830584569
Pavelló Poliesportiu Municipal Virrei Amat - Ramon Aldrufeu,1989,C Joan Alcover,8.0,Nou Barris,41.42938116066023,2.173766830584569
Espai Jove Guineueta *Masia de la Guineueta,2003,Pl Ca n'Ensenya,8.0,Nou Barris,41.43753043898184,2.169299535295852
Espai Jove Guineueta *Masia de la Guineueta,2003,Pl Ca n'Ensenya,8.0,Nou Barris,41.43753043898184,2.169299535295852
Casal de Barri Verdun,2010,C Luz Casanova,8.0,Nou Barris,41.44384506469325,2.174979662227258
Casal de Barri Verdun,2010,C Luz Casanova,8.0,Nou Barris,41.44384506469325,2.174979662227258
Punt de connexió Barcelona WiFi a la cruïlla del carrer Lope de Vega amb Llull,2014,C Lope de Vega,10.0,Sant Martí,41.403675650607525,2.204781814561324
Punt de connexió Barcelona WiFi a la cruïlla del carrer Marià Aguiló amb Pallars,2014,C Pallars,10.0,Sant Martí,41.40287867575928,2.2002517817677023
Punt de connexió Barcelona WiFi a la cruïlla del carrer Provençals amb Passeig del Taulat,2014,C Provençals,10.0,Sant Martí,41.40512883427549,2.211527274384181
Punt de connexió Barcelona WiFi a la cruïlla del carrer Lope de Vega amb el Passeig Taulat,2011,Pg Taulat,10.0,Sant Martí,41.401118222342944,2.2078857131940866
Punt de connexió Barcelona WiFi a la cruïlla del carrer Numància amb el carrer Anglesola,2011,C Numància,4.0,Les Corts,41.38873668810233,2.133323414998229
Punt de connexió Barcelona WiFi a la cruïlla del carrer Numància amb el carrer Flos i Calçat,2011,C Numància,4.0,Les Corts,41.39088949281588,2.13134277901768
Punt de connexió Barcelona WiFi a la cruïlla del carrer Caravel·la La Niña amb Avinguda Diagonal,2011,Av Diagonal,4.0,Les Corts,41.39034506746233,2.134845636533336
Punt de connexió Barcelona WiFi a la cruïlla del c. Roger de Llúria amb G. V. de les Corts Catalanes,2012,G.V. Corts Catalanes,2.0,Eixample,41.39135377481406,2.1707601801103737
Consell Municipal del Districte de Ciutat Vella,1988,Pl Bonsuccés,1.0,Ciutat Vella,41.38390541351899,2.1694092669132554
Consell Municipal del Districte de Ciutat Vella,1988,Pl Bonsuccés,1.0,Ciutat Vella,41.38390541351899,2.1694092669132554
Punt de connexió Barcelona WiFi a la cruïlla del carrer Josep Ferrater i Mora amb el Pg Garcia Faria,2011,Av Litoral,10.0,Sant Martí,41.4028072111978,2.2147330456683147
Platja del Somorrostro,2011,Passeig Marítim de la Barceloneta,1.0,Ciutat Vella,41.38346152967781,2.1952328977717435
Punt de connexió Barcelona WiFi a la cruïlla de La Rambla amb el c. del Portal de Santa Madrona,2012,C la Rambla,1.0,Ciutat Vella,41.377281332192105,2.176227204383669
Punt de connexió Barcelona WiFi a la cruïlla de La Rambla amb la Plaça del Teatre,2012,C la Rambla,1.0,Ciutat Vella,41.37873690909496,2.1755382686229066
Museu Picasso,1984,Carrer de Montcada,1.0,Ciutat Vella,41.38518764927223,2.180853795205005
Museu Picasso,1984,Carrer de Montcada,1.0,Ciutat Vella,41.38518764927223,2.180853795205005
Museu Picasso,1984,Carrer de Montcada,1.0,Ciutat Vella,41.38518764927223,2.180853795205005
Punt de connexió Barcelona WiFi a la cruïlla del carrer Castella amb Av Diagonal,2014,C Castella,10.0,Sant Martí,41.40619688383689,2.1970119269863706
Punt de connexió Barcelona WiFi a la cruïlla del carrer Vallespir amb Travessera de les Corts,2014,C Vallespir,4.0,Les Corts,41.38530299948898,2.133031670648731
Punt de connexió Barcelona WiFi a la cruïlla dels carrers Viladomat amb carrer Parlament,2014,C Viladomat,2.0,Eixample,41.375890867150375,2.162151941721545
Punt de connexió Barcelona WiFi a la cruïlla del carrer Amigó amb Via Augusta,2014,C Amigó,5.0,Sarrià-Sant Gervasi,41.39832394624044,2.140789107869244
Punt de connexió Barcelona WiFi a la cruïlla del carrer Casanova amb carrer del Consell de Cent,2014,C Casanova,2.0,Eixample,41.38557524311382,2.158779410901398
Punt de connexió Barcelona WiFi a la cruïlla del carrer Còrsega amb carrer Castillejos,2014,C Còrsega,2.0,Eixample,41.40840909496281,2.1752902323551675
Punt de connexió Barcelona WiFi a la cruïlla del carrer Villarroel amb carrer Diputació,2014,C Villarroel,2.0,Eixample,41.38371144092215,2.158619923451321
Casal de Gent Gran Cotxeres de Sants,1991,Pas de Fructuós Gelabert,3.0,Sants-Montjuïc,41.37483734331482,2.136421053260438
Casal de Gent Gran Cotxeres de Sants,1991,Pas de Fructuós Gelabert,3.0,Sants-Montjuïc,41.37483734331482,2.136421053260438
Espai Jove del Clot i del Camp de l'Arpa,2015,G.V. Corts Catalanes,10.0,Sant Martí,41.4049744419826,2.188344287143786
Espai Jove del Clot i del Camp de l'Arpa,2015,G.V. Corts Catalanes,10.0,Sant Martí,41.4049744419826,2.188344287143786
Associació de Gent Gran Pau Casals - Casal Cardener,2005,Carrer del Cardener,6.0,Gràcia,41.41011605830844,2.1570345462222167
Associació de Gent Gran Pau Casals - Casal Cardener,2005,Carrer del Cardener,6.0,Gràcia,41.41011605830844,2.1570345462222167
Punt de connexió Barcelona WiFi a la cruïlla del carrer Roger de Flor amb carrer Ausiàs March,2014,C Roger de Flor,2.0,Eixample,41.39419309651702,2.1789549517097795
Punt de connexió Barcelona WiFi a la cruïlla de la Ronda del Guinardó amb el carrer San Quintí,2014,Rda Guinardó,7.0,Horta-Guinardó,41.41664619252728,2.174616549278112
Punt de connexió Barcelona WiFi a la cruïlla dels carrers Calàbria amb Mallorca,2014,C Calàbria,2.0,Eixample,41.3837360915857,2.149475008289194
Punt de connexió Barcelona WiFi a la cruïlla del carrer del Consell de Cent amb Comte Borrell,2014,C Consell de Cent,2.0,Eixample,41.38288691392168,2.155001738866576
Punt de connexió Barcelona WiFi a la cruïlla del carrer Diputació amb Comte Borrell,2014,C Diputació,2.0,Eixample,41.38202729400706,2.156085987117676
Espai  Via Barcino,2013,Via Bàrcino,9.0,Sant Andreu,41.450115781030426,2.19213889686197
Centre Cívic Baró de Viver,1988,Carrer de Quito,9.0,Sant Andreu,41.44632071908157,2.20030768852695
Centre Cívic Baró de Viver,1988,Carrer de Quito,9.0,Sant Andreu,41.44632071908157,2.20030768852695
Punt de connexió Barcelona WiFi a la cruïlla del carrer Bilbao amb Pallars,2012,C Bilbao,10.0,Sant Martí,41.404321003147786,2.2017327676373712
Casal de Barri Vila Olímpica-Can Gili Nou,2010,C Taulat,10.0,Sant Martí,41.39526583762423,2.200836766744126
Casal de Barri Vila Olímpica-Can Gili Nou,2010,C Taulat,10.0,Sant Martí,41.39526583762423,2.200836766744126
Punt de connexió Barcelona WiFi a la cruïlla Federico García Lorca amb  Antonio Machado,2011,C Federico García Lorca,8.0,Nou Barris,41.44218011756211,2.1647508348028
Punt de connexió Barcelona WiFi a la cruïlla Federico García Lorca amb el carrer Via Favència,2011,Via Favència,8.0,Nou Barris,41.441304705910326,2.1652731042977558
Punt de connexió Barcelona WiFi a la cruïlla del Passeig de Sant Joan amb Avinguda Diagonal,2011,Av Diagonal,2.0,Eixample,41.39912058113176,2.1695044708514226
Punt de connexió Barcelona WiFi a la cruïlla del carrer Jonqueres amb Ramon Mas,2012,Via Laietana,1.0,Ciutat Vella,41.38730095024378,2.174501991214346
Punt de connexió Barcelona WiFi a la cruïlla de la Via Laietana amb el carrer Àngel Baixeres,2012,Via Laietana,1.0,Ciutat Vella,41.38234813744671,2.1807799722710155
Punt de connexió Barcelona WiFi a la cruïlla del carrer Còrsega amb l'Avinguda Gaudí,2012,C Còrsega,2.0,Eixample,41.40765968457824,2.1742849716691057
Parc de la Ciutadella,1988,Passeig de Picasso,1.0,Ciutat Vella,41.38633657544665,2.185381778970792
Parc de la Ciutadella,1988,Passeig de Picasso,1.0,Ciutat Vella,41.38633657544665,2.185381778970792
Jardins d'Aclimatació de Montjuïc,1985,Av Estadi,3.0,Sants-Montjuïc,41.366093518468645,2.152965473661524
Jardins d'Aclimatació de Montjuïc,1985,Av Estadi,3.0,Sants-Montjuïc,41.366093518468645,2.152965473661524
Punt de connexió Barcelona WiFi a la cruïlla del carrer Mallorca amb carrer Lepant,2014,C Mallorca,2.0,Eixample,41.40424200472028,2.1765982586205315
Punt de connexió Barcelona WiFi a la cruïlla del carrer Mallorca amb carrer de Roger de Flor,2014,C Mallorca,2.0,Eixample,41.39990199292702,2.1707747356188944
Punt de connexió Barcelona WiFi a la cruïlla de La Rambla amb el carrer Hospital,2012,C la Rambla,1.0,Ciutat Vella,41.38129804145985,2.173027067411946
Punt de connexió Barcelona WiFi a la cruïlla de l'Avinguda del Paral·lel amb Nou de la Rambla,2012,Av Paral.lel,3.0,Sants-Montjuïc,41.3750201128833,2.170291010339678
Punt de connexió Barcelona WiFi a la cruïlla del c. Rocafort amb la Gran Via de les Corts Catalanes,2012,G.V. Corts Catalanes,2.0,Eixample,41.37872558363552,2.154168418208906
Punt de connexió Barcelona WiFi a la cruïlla del carrer Santaló amb carrer Rector Ubach,2014,C Santaló,5.0,Sarrià-Sant Gervasi,41.3976998385216,2.143100405076979
Punt de connexió Barcelona WiFi a la cruïlla del carrer de Sants amb Riera d'Escuder,2014,C Sants,3.0,Sants-Montjuïc,41.37540595875186,2.132333726549951
L'Auditori de Barcelona,1998,C Lepant,2.0,Eixample,41.398772424934776,2.185159128100962
L'Auditori de Barcelona,1998,C Lepant,2.0,Eixample,41.398772424934776,2.185159128100962
Punt de connexió Barcelona WiFi a la cruïlla de la Gran Via de les Corts Catalanes amb Mèxic,2012,Ctra Bordeta,3.0,Sants-Montjuïc,41.37390042141178,2.147251705132652
Punt de connexió Barcelona WiFi a la cruïlla del carrer Tarragona amb València,2012,C Elisi,3.0,Sants-Montjuïc,41.37876160892612,2.144868252811991
Punt de connexió Barcelona WiFi a la cruïlla del carrer Comerç amb Fusina,2013,C Comerç,1.0,Ciutat Vella,41.38623448614545,2.1827347875835006
Punt de connexió Barcelona WiFi a la cruïlla del carrer Comerç amb el carrer Ribera,2013,C Ribera,1.0,Ciutat Vella,41.38492152567715,2.183763688391432
Punt de connexió Barcelona WiFi a Pla de Palau amb l'Avinguda Marquès d'Argentera,2013,Pla Palau,1.0,Ciutat Vella,41.38311498445353,2.184041571430272
Punt de connexió Barcelona WiFi a la cruïlla del carrer Cartagena amb carrer de Josep Ciurana,2014,C Cartagena,7.0,Horta-Guinardó,41.4147711050823,2.169473228399064
Punt de connexió Barcelona WiFi a la cruïlla del carrer Casanova amb carrer Rosselló,2014,C Casanova,2.0,Eixample,41.389872519759045,2.152722374264522
Punt de connexió Barcelona WiFi a la cruïlla del carrer del Cigne amb el carrer Gran de Gràcia,2014,C Cigne,6.0,Gràcia,41.40058917200841,2.154038500137889
Punt de connexió Barcelona WiFi a la cruïlla dels carrers Comte Borrell amb carrer Rosselló,2014,C Comte Borrell,2.0,Eixample,41.38725377424512,2.1497659082303207
Jardins Interior d'Illa de Tres Tombs,2001,Carrer de Manso,2.0,Eixample,41.37637095451236,2.160351170118098
Jardins Interior d'Illa de Tres Tombs,2001,Carrer de Manso,2.0,Eixample,41.37637095451236,2.160351170118098
Jardins Interior d'Illa de Tres Tombs,2001,Carrer de Manso,2.0,Eixample,41.37637095451236,2.160351170118098
Casal de Barri Can Baró - El Pirineu,2007,C Josep Serrano,7.0,Horta-Guinardó,41.41723109674814,2.1624353098642413
Casal de Barri Can Baró - El Pirineu,2007,C Josep Serrano,7.0,Horta-Guinardó,41.41723109674814,2.1624353098642413
Casal de Barri Can Baró - El Pirineu,2007,C Josep Serrano,7.0,Horta-Guinardó,41.41723109674814,2.1624353098642413
Casal de Barri Can Baró - El Pirineu,2007,C Josep Serrano,7.0,Horta-Guinardó,41.41723109674814,2.1624353098642413
Punt de connexió Barcelona WiFi a la cruïlla del carrer Comte d'Urgell amb c.  del Consell de Cent,2014,C Comte d'Urgell,2.0,Eixample,41.383683879983,2.1563050777937627
Punt de connexió Barcelona WiFi a la cruïlla de carrer del Mas Casanovas amb carrer Padilla,2014,C Mas Casanovas,7.0,Horta-Guinardó,41.4117221681475,2.1689205220701786
Punt de connexió Barcelona WiFi a la cruïlla del carrer Via Augusta 226 amb Calvet,2014,Via Augusta,5.0,Sarrià-Sant Gervasi,41.39800721381476,2.139666186822471
Punt de connexió Barcelona WiFi a la cruïlla dels carrers Vilamarí amb carrer Aragó,2014,C Vilamarí,2.0,Eixample,41.37884719481388,2.149249688611231
Punt de connexió Barcelona WiFi a la cruïlla del carrer Bruc amb carrer Mallorca,2014,C Bruc,2.0,Eixample,41.39662063857121,2.166723837524514
Punt de connexió Barcelona WiFi a la cruïlla dels carrers Calàbria amb carrer Aragó,2014,C Calàbria,2.0,Eixample,41.382019253191935,2.151819601609544
Punt de connexió Barcelona WiFi a la cruïlla dels carrers Calàbria amb carrer del Consell de Cent,2014,C Calàbria,2.0,Eixample,41.381161008427846,2.1529568866047177
Centre Cívic Joan Oliver - Pere Quart,1999,Carrer del Comandant Benítez,4.0,Les Corts,41.37933180540104,2.127776128826079
Centre Cívic Joan Oliver - Pere Quart,1999,Carrer del Comandant Benítez,4.0,Les Corts,41.37933180540104,2.127776128826079
Punt de connexió Barcelona WiFi a la cruïlla de l'Avinguda Meridiana amb Espronceda,2012,Pl Ferran Reyes,9.0,Sant Andreu,41.41876558522198,2.18671556804852
Punt de connexió Barcelona WiFi a la cruïlla del carrer Camèlies amb França,2012,C Camèlies,7.0,Horta-Guinardó,41.41413750208616,2.1648263466589786
Punt de connexió Barcelona WiFi a la cruïlla del Passeig Maragall amb Indústria,2012,Pg Maragall,10.0,Sant Martí,41.41447933652475,2.1809099811698065
Punt de connexió Barcelona WiFi a la cruïlla del carrer Provença amb Marina,2012,C Provença,2.0,Eixample,41.404312398866665,2.174385027475356
Casal de Gent Gran del Baix Guinardó,1998,C Marina,7.0,Horta-Guinardó,41.409963298329394,2.1675453838467686
Casal de Gent Gran del Baix Guinardó,1998,C Marina,7.0,Horta-Guinardó,41.409963298329394,2.1675453838467686
Punt de connexió Barcelona WiFi a la cruïlla de Rambla de Catalunya amb València,2012,Rbla Catalunya,2.0,Eixample,41.3919731532022,2.162557245375192
Punt de connexió Barcelona WiFi a la cruïlla de Rambla de Catalunya amb Mallorca,2012,Rbla Catalunya,2.0,Eixample,41.392953715779065,2.161179417628543
Punt de connexió Barcelona WiFi a la cruïlla dels carrers Viladomat amb Còrsega,2012,C Viladomat,2.0,Eixample,41.38733402175132,2.1472209218753893
Centre Cívic Tomasa Cuevas - Les Corts,1999,Carrer de Dolors Masferrer i Bosch,4.0,Les Corts,41.38481868130681,2.128341678987052
Centre Cívic Tomasa Cuevas - Les Corts,1999,Carrer de Dolors Masferrer i Bosch,4.0,Les Corts,41.38481868130681,2.128341678987052
Punt de connexió Barcelona WiFi a la cruïlla de l'Av. del Paral·lel amb Vilamarí,2012,Av Paral.lel,2.0,Eixample,41.37505050597708,2.1538462628175417
Casal de Gent Gran Vilapicina i Torre Llobeta,2012,Pl Carmen Laforet,8.0,Nou Barris,41.42691611188821,2.1764696039707148
Casal de Gent Gran Vilapicina i Torre Llobeta,2012,Pl Carmen Laforet,8.0,Nou Barris,41.42691611188821,2.1764696039707148
Punt de connexió Barcelona WiFi a la cruïlla del carrer Felip II amb la Plaça del Doctor Modrego,2012,Pl Doctor Modrego,9.0,Sant Andreu,41.42536842960699,2.180184774721653
Punt de connexió Barcelona WiFi a la cruïlla de la Trav. de Dalt amb els Jardins de Menéndez Pelayo,2012,Trav Dalt,6.0,Gràcia,41.40909006561043,2.1537123287081728
Punt de connexió Barcelona WiFi a la cruïlla de l'Av. Portal de l'Àngel amb el carrer Fontanella,2011,Pl Catalunya,1.0,Ciutat Vella,41.38683702117165,2.17124638891391
Sala d'Estudi,2016,C Sant Pere Més Baix,1.0,Ciutat Vella,41.388220707264985,2.178542012071502
Sala d'Estudi,2016,C Sant Pere Més Baix,1.0,Ciutat Vella,41.388220707264985,2.178542012071502
Espai Jove La Fontana,2009,C Gran de Gràcia,6.0,Gràcia,41.403342374883685,2.1528048898678125
Espai Jove La Fontana,2009,C Gran de Gràcia,6.0,Gràcia,41.403342374883685,2.1528048898678125
Punt de connexió Barcelona WiFi a la cruïlla del carrer Numància amb Avinguda Diagonal,2011,C Numància,4.0,Les Corts,41.38963947513398,2.1327928275094497
Punt de connexió Barcelona WiFi a l'Avinguda Diagonal a prop l'edifici de La Caixa,2011,Av Diagonal,,,,
Punt de connexió Barcelona WiFi a la cruïlla del Passeig de Gràcia amb el carrer Diputació,2011,Pg Gràcia,2.0,Eixample,41.3903926100143,2.1672268055289106
Espai d'Adolescents Jovecardí,2010,Trav Corts,4.0,Les Corts,41.37933135791374,2.123827322512148
Espai d'Adolescents Jovecardí,2010,Trav Corts,4.0,Les Corts,41.37933135791374,2.123827322512148
Punt de connexió Barcelona WiFi a la cruïlla del carrer Lepant amb l'Avinguda Gaudí,2012,Av Gaudí,2.0,Eixample,41.405973543583606,2.174490563570312
Punt de connexió Barcelona WiFi a la cruïlla de Rambla de Catalunya amb Pelai,2012,Pl Catalunya,1.0,Ciutat Vella,41.385600880242606,2.170263048253909
Punt de connexió Barcelona WiFi a la cruïlla del carrer Marina amb Diputació,2012,C Diputació,2.0,Eixample,41.400201261971134,2.180168546953221
Punt de connexió Barcelona WiFi a la cruïlla del carrer Nàpols amb l'Avinguda Diagonal,2012,Av Diagonal,2.0,Eixample,41.39996786371862,2.173676760934198
Punt de connexió Barcelona WiFi a la cruïlla del c. Sicília amb la Gran Via de les Corts Catalanes,2012,G.V. Corts Catalanes,2.0,Eixample,41.39758731104775,2.17909079508422
Punt de connexió Barcelona WiFi a la cruïlla de la Rambla del Poblenou amb Perú,2012,C Perú,10.0,Sant Martí,41.40684597337793,2.1939047935051885
Punt de connexió Barcelona WiFi a la cruïlla del carrer Girona amb Gran Via de les Corts Catalanes,2012,G.V. Corts Catalanes,2.0,Eixample,41.393095504893786,2.173246315079492
Punt de connexió Barcelona WiFi a la cruïlla del carrer Pau Claris amb Diputació,2012,C Pau Claris,2.0,Eixample,41.39165653552198,2.1686212463915844
Punt de connexió Barcelona WiFi a la cruïlla de l 'Av. Marquès de l'Argentera amb el carrer Comerç,2013,Av Marquès de l'Argentera,1.0,Ciutat Vella,41.384599852561465,2.184750923709624
Centre Esportiu Municipal Marítim,2000,Pg Marítim Barceloneta,1.0,Ciutat Vella,41.38466275981191,2.195470990559355
Centre Esportiu Municipal Marítim,2000,Pg Marítim Barceloneta,1.0,Ciutat Vella,41.38466275981191,2.195470990559355
Centre Esportiu Municipal Marítim,2000,Pg Marítim Barceloneta,1.0,Ciutat Vella,41.38466275981191,2.195470990559355
Centre Esportiu Municipal Marítim,2000,Pg Marítim Barceloneta,1.0,Ciutat Vella,41.38466275981191,2.195470990559355
Centre Esportiu Municipal Marítim,2000,Pg Marítim Barceloneta,1.0,Ciutat Vella,41.38466275981191,2.195470990559355
Centre Esportiu Municipal Marítim,2000,Pg Marítim Barceloneta,1.0,Ciutat Vella,41.38466275981191,2.195470990559355
Punt de connexió Barcelona WiFi a la cruïlla dels carrers Aribau amb carrer Aragó,2014,C Aribau,2.0,Eixample,41.38795193816608,2.1597886572256173
Punt de connexió Barcelona WiFi a la cruïlla del carrer Brusi amb Via Augusta,2014,C Brusi,5.0,Sarrià-Sant Gervasi,41.400865522973,2.1459871515780424
Punt de connexió Barcelona WiFi a la cruïlla del carrer Via Augusta amb carrer Demestre,2014,Via Augusta,5.0,Sarrià-Sant Gervasi,41.39815040133448,2.1265169539731827
Punt de connexió Barcelona WiFi a la cruïlla del carrer Bailén amb Travessera de Gràcia,2014,C Bailèn,6.0,Gràcia,41.40351198519493,2.1617712053892006
Punt de connexió Barcelona WiFi a la cruïlla del Pg. de la Bonanova amb carrer d'Anglí,2014,Pg Bonanova,5.0,Sarrià-Sant Gervasi,41.40181907468428,2.124573273925504
Punt de connexió Barcelona WiFi a la cruïlla del carrer Bruc amb carrer Casp,2014,C Bruc,2.0,Eixample,41.3912953393144,2.173774590216742
Punt de connexió Barcelona WiFi a la cruïlla del c. Sant Ramon de Penyafort amb el c. Rull,2014,C Llull,10.0,Sant Martí,41.41457588225175,2.2196875301042547
"Punt de connexió Barcelona WiFi a l'Avinguda Carlos III, a l'alçada del número 81",2014,G.V. Carles III,4.0,Les Corts,41.385880193435646,2.1268860312725515
Punt de connexió Barcelona WiFi a la cruïlla del carrer Calvet amb La Forja,2014,C Calvet,5.0,Sarrià-Sant Gervasi,41.39522791580342,2.1429983145335165
Punt de connexió Barcelona WiFi a la cruïlla del carrer Nàpols amb carrer Provença,2014,C Nàpols,2.0,Eixample,41.40075048956016,2.172173067136077
Punt de connexió Barcelona WiFi a la cruïlla del carrer Numància amb carrer Robrenyó,2014,C Numància,3.0,Sants-Montjuïc,41.38228823906991,2.13996490283903
Punt de connexió Barcelona WiFi a la cruïlla del carrer Padilla amb carrer Provença,2014,C Padilla,2.0,Eixample,41.40623165870763,2.176358051476521
Casal de Barri Diagonal Mar,2006,C Selva de Mar,10.0,Sant Martí,41.40799783917188,2.210484721162894
Casal de Barri Diagonal Mar,2006,C Selva de Mar,10.0,Sant Martí,41.40799783917188,2.210484721162894
Punt de connexió Barcelona WiFi a la cruïlla del carrer Trafalgar amb Ortigosa,2014,C Trafalgar,1.0,Ciutat Vella,41.3889804296877,2.1760490100888408
Punt de connexió Barcelona WiFi a la cruïlla del carrer Pamplona amb Almogàvers,2014,C Pamplona,10.0,Sant Martí,41.39718725125628,2.1905205020576446
Punt de connexió Barcelona WiFi a la cruïlla dels carrers Calàbria amb carrer Diputació,2014,C Calàbria,2.0,Eixample,41.38028435319481,2.154115428153795
Punt de connexió Barcelona WiFi a la cruïlla del carrer Castillejos amb carrer Mallorca,2014,C Los Castillejos,2.0,Eixample,41.40602378777207,2.179185338759717
Punt de connexió Barcelona WiFi a la cruïlla del carrer del Consell de Cent amb carrer Girona,2014,C Consell de Cent,2.0,Eixample,41.39474466477788,2.1707257308974506
Punt de connexió Barcelona WiFi a la cruïlla del carrer del Dos de Maig amb Rosselló,2014,C Dos de Maig,2.0,Eixample,41.40921060822736,2.179064765153882
Punt de connexió Barcelona WiFi a la cruïlla dels carrers Comte d'Urgell amb París,2012,C París,2.0,Eixample,41.38970073967707,2.14804312277329
Punt de connexió Barcelona WiFi a la cruïlla del carrer Vilamarí amb l'Avinguda de Roma,2012,C Vilamarí,2.0,Eixample,41.38153111471343,2.146143227595447
Punt de connexió Barcelona WiFi a la cruïlla del carrer Via Augusta amb Hort de la Vila,2014,Via Augusta,5.0,Sarrià-Sant Gervasi,41.39919437449897,2.1250704696303
Centre Cívic  Parc Sandaru,2006,Carrer de Buenaventura Muñoz,10.0,Sant Martí,41.39174570900244,2.1847668215909435
Centre Cívic  Parc Sandaru,2006,Carrer de Buenaventura Muñoz,10.0,Sant Martí,41.39174570900244,2.1847668215909435
Punt InfoJOVE Gràcia,1999,C Gran de Gràcia,6.0,Gràcia,41.403342374883685,2.1528048898678125
Casal de Barri de Vallbona,1999,C Oristà,8.0,Nou Barris,41.46380397420253,2.1852811454732106
Casal de Barri de Vallbona,1999,C Oristà,8.0,Nou Barris,41.46380397420253,2.1852811454732106
Punt de connexió Barcelona WiFi a la cruïlla del carrer Espanya Industrial amb Creu coberta,2014,C Espanya Industrial,3.0,Sants-Montjuïc,41.37550351065293,2.1403902291566586
Punt de connexió Barcelona WiFi a la cruïlla del carrer Felip II amb c.de Juan de Garay,2014,C Felip II,9.0,Sant Andreu,41.4210877291312,2.185837719665396
"Punt de connexió Barcelona WiFi a la cruïlla del c. Roger de Flor amb Sant Antoni Maria Claret, 35",2014,C Roger de Flor,6.0,Gràcia,41.40416694294549,2.1652889549493355
Espai Jove Palau Alòs,2011,C Sant Pere Més Baix,1.0,Ciutat Vella,41.388220707264985,2.178542012071502
Espai Jove Palau Alòs,2011,C Sant Pere Més Baix,1.0,Ciutat Vella,41.388220707264985,2.178542012071502
Punt de connexió Barcelona WiFi a la cruïlla del Passeig de Gràcia amb el carrer Aragó,2011,Pg Gràcia,2.0,Eixample,41.39204817444384,2.1651239601749714
Punt de connexió Barcelona WiFi a la cruïlla del carrer Llacuna amb l'Avinguda Litoral,2011,Pg Marítim del Bogatell,10.0,Sant Martí,41.39520698095358,2.2067080231346763
Punt de connexió Barcelona WiFi a la cruïlla de la Via Laietana amb l'Avinguda de la Catedral,2012,Pl Antoni Maura,1.0,Ciutat Vella,41.38540649273647,2.176638171682794
Punt de connexió Barcelona WiFi a la cruïlla de l'Avinguda Diagonal amb Roger de Llúria,2012,Av Diagonal,2.0,Eixample,41.39742881737435,2.1629710390616883
Punt de connexió Barcelona WiFi a la cruïlla de la Gran Via de les Corts Catalanes amb Roger de Flor,2012,G.V. Corts Catalanes,2.0,Eixample,41.39585391895038,2.176679661330109
Punt de connexió Barcelona WiFi a la cruïlla del carrer Marina amb Aragó,2012,C Aragó,2.0,Eixample,41.401792941531134,2.178032359373652
Punt de connexió Barcelona WiFi a la cruïlla del carrer Llacuna amb Pere IV,2012,C Pere IV,10.0,Sant Martí,41.40218480931684,2.1972938373858706
Centre Cívic Navas,2012,Carrer de Las Navas de Tolosa,9.0,Sant Andreu,41.41693998158291,2.184931573020558
Centre Cívic Navas,2012,Carrer de Las Navas de Tolosa,9.0,Sant Andreu,41.41693998158291,2.184931573020558
Punt de connexió Barcelona WiFi a la cruïlla dels carrers Sepúlveda amb Villarroel,2012,C Villarroel,2.0,Eixample,41.382172199479534,2.1606588088459726
Punt de connexió Barcelona WiFi a la cruïlla del carrer Pau Claris amb l'Avinguda Diagonal,2012,Av Diagonal,2.0,Eixample,41.39681252895412,2.161487578407973
Punt de connexió Barcelona WiFi a la cruïlla del carrer Comerç amb el Passeig del Born,2013,Pg Born,1.0,Ciutat Vella,41.3852725416165,2.183382341995756
Punt de connexió Barcelona WiFi a la cruïlla de l'Av. Josep Tarradellas amb Numància,2012,C Viriat,3.0,Sants-Montjuïc,41.38067550925943,2.1420431661295303
Punt de connexió Barcelona WiFi a la cruïlla dels carrers Entença amb Sepúlveda,2012,C Sepúlveda,2.0,Eixample,41.377224209261286,2.154355027749752
Punt de connexió Barcelona WiFi a la cruïlla del carrer Ferrater i Mora amb el Passeig del Taulat,2011,Pg Taulat,10.0,Sant Martí,41.40366274977404,2.2112246299566234
Punt de connexió Barcelona WiFi a la cruïlla de Josep Pla amb Passeig Taulat,2011,Pg Taulat,10.0,Sant Martí,41.40810733203654,2.2165802011236417
Casal de Gent Gran Can Peguera,2011,C Camós,8.0,Nou Barris,41.43402087587389,2.164193089930587
Casal de Gent Gran Can Peguera,2011,C Camós,8.0,Nou Barris,41.43402087587389,2.164193089930587
Punt de connexió Barcelona WiFi a la cruïlla del c. Sicília amb c. de Sant Antoni Maria Claret,2014,C Sicília,6.0,Gràcia,41.4059171878632,2.167999926133474
Punt de connexió Barcelona WiFi a la cruïlla de la Rambla del Poblenou amb Pere IV,2014,Rbla Poblenou,10.0,Sant Martí,41.40330980735939,2.198545845656452
Centre Cultural Albareda,2012,Carrer d'Albareda,3.0,Sants-Montjuïc,41.3740297348978,2.1732856508328204
Centre Cultural Albareda,2012,Carrer d'Albareda,3.0,Sants-Montjuïc,41.3740297348978,2.1732856508328204
Punt de connexió Barcelona WiFi a la cruïlla del carrer Selva de Mar amb el Passeig Garcia Faria,2011,C Selva de Mar,10.0,Sant Martí,41.40429890784692,2.2149385763760314
Punt de connexió Barcelona WiFi a la cruïlla de l'Avinguda Diagonal amb Sardenya,2012,Av Diagonal,2.0,Eixample,41.40082624827406,2.176824028040584
Punt de connexió Barcelona WiFi a la cruïlla de la Gran Via de Carles III amb Avinguda Diagonal,2011,Av Diagonal,4.0,Les Corts,41.38862274652595,2.128253873420936
Casal de Barri Bac de Roda - Poblenou,2010,Camí Antic de València,10.0,Sant Martí,41.40680575086897,2.2039755474775142
Casal de Barri Bac de Roda - Poblenou,2010,Camí Antic de València,10.0,Sant Martí,41.40680575086897,2.2039755474775142
Casal de Barri La Verneda,2009,C Santander,10.0,Sant Martí,41.42281497598284,2.196803001505498
Casal de Barri La Verneda,2009,C Santander,10.0,Sant Martí,41.42281497598284,2.196803001505498
Punt de connexió Barcelona WiFi a la cruïlla del c. Villarroel amb Gran Via de les Corts Catalanes,2012,G.V. Corts Catalanes,2.0,Eixample,41.38301739719246,2.1599212380020103
Centre Esportiu Municipal Putxet,2010,C Marmellà,5.0,Sarrià-Sant Gervasi,41.40972803896787,2.1412958877792825
Centre Esportiu Municipal Putxet,2010,C Marmellà,5.0,Sarrià-Sant Gervasi,41.40972803896787,2.1412958877792825
Centre Esportiu Municipal Putxet,2010,C Marmellà,5.0,Sarrià-Sant Gervasi,41.40972803896787,2.1412958877792825
Centre Esportiu Municipal Putxet,2010,C Marmellà,5.0,Sarrià-Sant Gervasi,41.40972803896787,2.1412958877792825
Centre Esportiu Municipal Putxet,2010,C Marmellà,5.0,Sarrià-Sant Gervasi,41.40972803896787,2.1412958877792825
Centre Esportiu Municipal Putxet,2010,C Marmellà,5.0,Sarrià-Sant Gervasi,41.40972803896787,2.1412958877792825
Punt de connexió Barcelona WiFi a la cruïlla del Pg de Sant Joan amb el c. Sant Antoni Maria Claret,2011,Pg Sant Joan,6.0,Gràcia,41.4035011782214,2.164251518116331
Punt de connexió Barcelona WiFi a la cruïlla del carrer Sant Roc amb la Gran Via Corts Catalanes,2011,G.V. Corts Catalanes,3.0,Sants-Montjuïc,41.372700387900345,2.146071152301244
Punt de connexió Barcelona WiFi a la Ronda Litoral amb el Parc del Fòrum,2011,Pg Garcia Fària,10.0,Sant Martí,41.40918240050712,2.221358059423629
Punt de connexió Barcelona WiFi a la cruïlla del carrer Llacuna amb Sancho de Àvila,2012,C Llacuna,10.0,Sant Martí,41.40339870761437,2.195841009287354
Punt de connexió Barcelona WiFi a la cruïlla del carrer Provençals amb Llull,2012,C Llull,10.0,Sant Martí,41.40683502237144,2.2096245417019964
Punt de connexió Barcelona WiFi a l'Avinguda Josep Vicenç Foix 98,2012,Av J V Foix,5.0,Sarrià-Sant Gervasi,41.39894784976396,2.1180812782520464
Punt de connexió Barcelona WiFi a la cruïlla del Pg Colom amb el Ptge del Dormitori de Sant Francesc,2011,Pg Colom,1.0,Ciutat Vella,41.3774758105529,2.179418929082419
Punt de connexió Barcelona WiFi a la cruïlla del Passeig de Josep Carner amb la Rbla de Santa Mònica,2011,Pl Portal de la Pau,1.0,Ciutat Vella,41.37592019992584,2.1773855736641656
Punt de connexió Barcelona WiFi a la cruïlla de la Ronda de Sant Pere amb el Passeig de Gràcia,2011,Rda Sant Pere,2.0,Eixample,41.38807315281576,2.1703324537450466
Punt de connexió Barcelona WiFi a la cruïlla entre Gran Via de les Corts Catalanes i Aribau,2011,G.V. Corts Catalanes,2.0,Eixample,41.38548135745429,2.162982358837229
Punt de connexió Barcelona WiFi a l'Avinguda Paral·lel 75,2012,Av Paral.lel,3.0,Sants-Montjuïc,41.374814583499685,2.168064522570736
Punt de connexió Barcelona WiFi a la cruïlla del carrer Bailén amb l'Avinguda Diagonal,2012,Av Diagonal,2.0,Eixample,41.39848771714962,2.1682458000980147
Punt de connexió Barcelona WiFi al Parc Central del Poblenou (Av Diagonal amb Pere IV),2011,Av Diagonal,10.0,Sant Martí,41.40679356695045,2.199757373643509
Punt de connexió Barcelona WiFi a la cruïlla del carrer Lepant amb Aragó,2014,C Lepant,2.0,Eixample,41.402405721889664,2.179243313614118
Punt de connexió Barcelona WiFi a la cruïlla del Passeig de Sant Joan amb el carrer Indústria,2011,Pg Sant Joan,6.0,Gràcia,41.40266227534264,2.165334889479093
Punt de connexió Barcelona WiFi a la cruïlla de la Rambla de Poblenou amb el Passeig Calvell,2011,Rbla Poblenou,10.0,Sant Martí,41.39732923710743,2.2060968675125183
Punt de connexió Barcelona WiFi a la Ronda del Guinardó 99,2011,Rda Guinardó,7.0,Horta-Guinardó,41.41484591963544,2.171909793789593
Punt de connexió Barcelona WiFi a la cruïlla de la Ronda del Guinardó amb el carrer Cartagena,2011,C Cartagena,7.0,Horta-Guinardó,41.41394311254159,2.170820908816517
Punt de connexió Barcelona WiFi a la cruïlla del carrer València amb Pau Claris,2012,C Pau Claris,2.0,Eixample,41.3940204463938,2.165498923138154
Punt de connexió Barcelona WiFi a la cruïlla del carrer Padilla amb Consell de Cent,2012,C Consell de Cent,2.0,Eixample,41.40268742988415,2.180915732915647
Punt de connexió Barcelona WiFi a la cruïlla de la Rambla del Poblenou amb l'Avinguda Diagonal,2012,Rbla Poblenou,10.0,Sant Martí,41.4055681852213,2.1954131860818658
Punt de connexió Barcelona WiFi a la cruïlla dels carrers Villarroel amb Floridablanca,2012,C Villarroel,2.0,Eixample,41.38097482237911,2.1622456019345284
Punt de connexió Barcelona WiFi a la cruïlla dels carrers Comte d'Urgell amb Floridablanca,2012,C Comte d'Urgell,2.0,Eixample,41.380488678003424,2.1605456295330705
Punt de connexió Barcelona WiFi a la cruïlla dels carrers Comte Borrell amb Floridablanca,2012,C Comte Borrell,2.0,Eixample,41.37929189318276,2.15990337471795
Punt de connexió Barcelona WiFi a la cruïlla del carrer Via Augusta amb carrer de Dolors Monserdà,2014,Via Augusta,5.0,Sarrià-Sant Gervasi,41.40165848138661,2.122110797032331
Punt de connexió Barcelona WiFi a la cruïlla del carrer Santaló amb carrer Via Augusta,2014,C Santaló,5.0,Sarrià-Sant Gervasi,41.398673452819295,2.1419045388944378
Punt de connexió Barcelona WiFi a la cruïlla del carrer de Tavern amb carrer Via Augusta,2014,C Tavern,5.0,Sarrià-Sant Gervasi,41.39924076730373,2.144167406191116
Punt de connexió Barcelona WiFi a la cruïlla del carrer de Béjar amb carrer de la Creu Coberta,2014,C Béjar,3.0,Sants-Montjuïc,41.37550030757016,2.146341092003709
Punt de connexió Barcelona WiFi a la cruïlla del carrer Comte Borrell amb l'Avinguda de Roma,2014,C Comte Borrell,2.0,Eixample,41.384442641676,2.153499553763789
Punt de connexió Barcelona WiFi a la cruïlla del carrer Còrsega amb carrer Bruc,2014,C Còrsega,2.0,Eixample,41.39906163922058,2.162841694978125
Punt de connexió Barcelona WiFi a la cruïlla dels carrers Comte Borrell amb carrer Mallorca,2014,C Comte Borrell,2.0,Eixample,41.385441437769416,2.1516991092028164
Punt de connexió Barcelona WiFi a la cruïlla dels carrers Comte d'Urgell amb carrer Provença,2014,C Comte d'Urgell,2.0,Eixample,41.38707071293433,2.151818201727234
Punt de connexió Barcelona WiFi a la cruïlla del carrer Diputació amb carrer Bailèn,2014,C Diputació,2.0,Eixample,41.39471038254474,2.172946986978081
Punt de connexió Barcelona WiFi a la cruïlla del carrer Aribau amb Rosselló,2014,C Aribau,2.0,Eixample,41.39137158000668,2.155264542710697
Punt de connexió Barcelona WiFi a la cruïlla del carrer Via Augusta 171 amb Muntaner,2014,Via Augusta,5.0,Sarrià-Sant Gervasi,41.39913514288585,2.1433245223212243
Punt de connexió Barcelona WiFi a la cruïlla de la Via Laietana amb el carrer Julià Portet,2012,Via Laietana,1.0,Ciutat Vella,41.386473165225226,2.175299243286832
Punt de connexió Barcelona WiFi a la cruïlla de la Via Laietana amb el carrer Argenteria,2012,Via Laietana,1.0,Ciutat Vella,41.38381204360592,2.17899936239958
Punt de connexió Barcelona WiFi a la cruïlla del carrer Mallorca amb Sicília,2012,Pl Sagrada Família,2.0,Eixample,41.402006791166656,2.173410053748836
Punt de connexió Barcelona WiFi a la cruïlla de l'Avinguda Gaudí amb el carrer Indústria,2012,C Indústria,2.0,Eixample,41.40933749775871,2.174229388378732
Punt de connexió Barcelona WiFi a la cruïlla del carrer Aribau amb l'Avinguda Diagonal,2012,Av Diagonal,2.0,Eixample,41.39438697517574,2.151262544858517
Centre Cívic Can Verdaguer,2013,Carrer de Piferrer,8.0,Nou Barris,41.43410459884157,2.1792048887112854
Centre Cívic Can Verdaguer,2013,Carrer de Piferrer,8.0,Nou Barris,41.43410459884157,2.1792048887112854
Biblioteca Vallcarca i els Penitents - M. Antonieta Cot,2011,Passeig de la Vall d'Hebron,6.0,Gràcia,41.420039115771104,2.13967498940329
Biblioteca Vallcarca i els Penitents - M. Antonieta Cot,2011,Passeig de la Vall d'Hebron,6.0,Gràcia,41.420039115771104,2.13967498940329
Biblioteca Vallcarca i els Penitents - M. Antonieta Cot,2011,Passeig de la Vall d'Hebron,6.0,Gràcia,41.420039115771104,2.13967498940329
Biblioteca Vallcarca i els Penitents - M. Antonieta Cot,2011,Passeig de la Vall d'Hebron,6.0,Gràcia,41.420039115771104,2.13967498940329
Punt de connexió Barcelona WiFi a la cruïlla del carrer Sant Antoni M. Claret amb Cartagena,2012,C Sant Antoni Maria Claret,2.0,Eixample,41.411326430790176,2.1745071370967533
Centre Cultural La Farinera del Clot,1999,Gran Via de les Corts Catalanes,10.0,Sant Martí,41.40487897583886,2.18840476699031
Centre Cultural La Farinera del Clot,1999,Gran Via de les Corts Catalanes,10.0,Sant Martí,41.40487897583886,2.18840476699031
Punt de connexió Barcelona WiFi a la cruïlla del carrer Numància amb el carrer Deu i Mata,2011,C Numància,4.0,Les Corts,41.38773667796516,2.1345873422810464
Punt de connexió Barcelona WiFi al Passeig de Sant Antoni (Estació d'Autobusos de Sants),2012,C Viriat,3.0,Sants-Montjuïc,41.37977546466304,2.1393347876396667
Punt de connexió Barcelona WiFi a la cruïlla dels carrers Aribau amb carrer Paris,2014,C Aribau,2.0,Eixample,41.39312281984424,2.1529050307040896
Punt de connexió Barcelona WiFi a la cruïlla dels carrers Aribau amb carrer Via Augusta,2014,C Aribau,5.0,Sarrià-Sant Gervasi,41.39971611339324,2.144931673013603
Punt de connexió Barcelona WiFi a la cruïlla del carrer Via Augusta amb Pg. de la Bonanova,2014,Via Augusta,5.0,Sarrià-Sant Gervasi,41.401274235562326,2.122852491250377
Punt de connexió Barcelona WiFi a la cruïlla del carrer Via Augusta 365 amb Institut Químic,2014,Via Augusta,5.0,Sarrià-Sant Gervasi,41.40212373788541,2.1199481982227746
Punt de connexió Barcelona WiFi a la cruïlla del carrer Via Augusta amb carrer de Sant Eusebi,2014,Via Augusta,5.0,Sarrià-Sant Gervasi,41.40109286501225,2.148868590750709
Punt de connexió Barcelona WiFi a la cruïlla del carrer Balmes amb carrer de les Santjoanistes,2014,C Balmes,5.0,Sarrià-Sant Gervasi,41.402017529420064,2.1463957648654897
Punt de connexió Barcelona WiFi a la cruïlla del carrer Balmes amb carrer Mallorca,2014,C Balmes,2.0,Eixample,41.391523877118594,2.159934651876779
Punt de connexió Barcelona WiFi a la cruïlla de la Plaça de Sants amb el Passeig de Sant Antoni,2012,C Antoni de Capmany,3.0,Sants-Montjuïc,41.37545867195077,2.135415351878092
Punt de connexió Barcelona WiFi a la cruïlla del carrer Santa Caterina i el Passeig de Sant Antoni,2012,Pg Sant Antoni,3.0,Sants-Montjuïc,41.37755040542828,2.137787573183941
Punt de connexió Barcelona WiFi a la cruïlla de l'Avinguda Diagonal amb Via Augusta,2012,Av Diagonal,2.0,Eixample,41.39563149331648,2.1557153881622475
Punt de connexió Barcelona WiFi a la cruïlla del carrer Doctor Roux amb Via Augusta,2012,Via Augusta,5.0,Sarrià-Sant Gervasi,41.397831283184175,2.13015930189597
Punt de connexió Barcelona WiFi a la cruïlla del carrer Vallmajor amb Via Augusta,2012,Via Augusta,5.0,Sarrià-Sant Gervasi,41.39788414836811,2.138826140383146
Punt de connexió Barcelona WiFi a la cruïlla de La Rambla amb el carrer Ferran,2012,C la Rambla,1.0,Ciutat Vella,41.38034247569639,2.174068770732233
Punt de connexió Barcelona WiFi a la cruïlla del carrer Moianés amb Ctra de la Bordeta,2014,C Moianès,3.0,Sants-Montjuïc,41.372487023459975,2.142557740302649
Punt de connexió Barcelona WiFi a la cruïlla del carrer Mont-ral amb carrer Dr. Letamendi,2014,C Mont-ral,7.0,Horta-Guinardó,41.43824695154287,2.162940673321132
Punt de connexió Barcelona WiFi a la cruïlla de l'Avinguda Paral·lel amb Portal de Santa Madrona,2011,Av Paral.lel,3.0,Sants-Montjuïc,41.37478680740541,2.173643859949881
Punt de connexió Barcelona WiFi a la cruïlla del carrer Aragó amb el Passeig de Sant Joan,2011,Pg Sant Joan,2.0,Eixample,41.39761223977326,2.171787872117715
Punt de connexió Barcelona WiFi a la cruïlla del carrer Comte d'Urgell amb Tamarit,2012,C Comte d'Urgell,2.0,Eixample,41.37931456732778,2.1623574626761792
Punt de connexió Barcelona WiFi a la cruïlla del carrer Balmes amb Diputació,2012,C Balmes,2.0,Eixample,41.38832586598571,2.1638323334249474
Centre Cívic Vallvidrera Vázquez Montalbán,2002,Carrer dels Reis Catòlics,5.0,Sarrià-Sant Gervasi,41.41539106451315,2.102545331836101
Centre Cívic Vallvidrera Vázquez Montalbán,2002,Carrer dels Reis Catòlics,5.0,Sarrià-Sant Gervasi,41.41539106451315,2.102545331836101
Centre Can Clos *En construcció,2002,Pl Mig de Can Clos,3.0,Sants-Montjuïc,41.36106621913381,2.146453960402699
Associació Casal Municipal de Gent Gran Verneda Alta,1987,Carrer de Binèfar,10.0,Sant Martí,41.4252594528991,2.204474971878569
Associació Casal Municipal de Gent Gran Verneda Alta,1987,Carrer de Binèfar,10.0,Sant Martí,41.4252594528991,2.204474971878569
Mercat de Sarrià,1984,Pg Reina Elisenda Montcada,5.0,Sarrià-Sant Gervasi,41.3998359320904,2.1207231796604997
Mercat de Sarrià,1984,Pg Reina Elisenda Montcada,5.0,Sarrià-Sant Gervasi,41.3998359320904,2.1207231796604997
Espai de Gent Gran La Violeta,2013,C Maspons,6.0,Gràcia,41.401030994270805,2.1562145898860363
Espai de Gent Gran La Violeta,2013,C Maspons,6.0,Gràcia,41.401030994270805,2.1562145898860363
Punt de connexió Barcelona WiFi a la cruïlla del carrer Mallorca amb carrer Nàpols,2014,C Mallorca,2.0,Eixample,41.40076651151112,2.171961216690067
"Punt de connexió Barcelona WiFi a la cruïlla del Passeig Maragall, 101  amb Xiprer",2014,Pg Maragall,7.0,Horta-Guinardó,41.41844524136423,2.180329489490662
Punt de connexió Barcelona WiFi a la cruïlla del carrer Via Augusta amb Madrazo,2014,Via Augusta,5.0,Sarrià-Sant Gervasi,41.400865323262096,2.150030176756053
Punt de connexió Barcelona WiFi a la cruïlla del carrer del Consell de Cent amb Pau Claris,2014,C Consell de Cent,2.0,Eixample,41.39223801736627,2.1673879231006272
Punt de connexió Barcelona WiFi a la cruïlla del carrer Lepant amb Còrsega,2014,C Lepant,2.0,Eixample,41.40683228240922,2.173360366927164
Punt de connexió Barcelona WiFi a la plaça Reina Maria Cristina,2011,Pl Reina Maria Cristina,4.0,Les Corts,41.38839217729596,2.127203860035805
Punt de connexió Barcelona WiFi a la cruïlla de la Rambla Prim amb Avinguda Diagonal,2011,Av Diagonal,10.0,Sant Martí,41.41153520323394,2.218569071246306
Punt de connexió Barcelona WiFi a la cruïlla del carrer Espronceda amb Avinguda Diagonal,2011,Av Diagonal,10.0,Sant Martí,41.40730439616135,2.2018660556074585
Punt de connexió Barcelona WiFi a la cruïlla del carrer Bilbao amb Avinguda Diagonal,2011,Av Diagonal,10.0,Sant Martí,41.40648213014639,2.198641000560115
Punt de connexió Barcelona WiFi a la cruïlla del carrer Rocafort amb l'Avinguda de Roma,2012,Av Roma,2.0,Eixample,41.38285061622837,2.148848802645859
Punt de connexió Barcelona WiFi al carrer Sabino de Arana,2014,C Sabino Arana,4.0,Les Corts,41.38547614322759,2.1266907591970448
Punt de connexió Barcelona WiFi a la cruïlla del carrer Rosselló amb carrer Castillejos,2014,C Rosselló,2.0,Eixample,41.407310733154446,2.17572884741126
Punt de connexió Barcelona WiFi a la cruïlla de la Plaça de Sanllehy amb Sardenya,2014,Pl Sanllehy,6.0,Gràcia,41.41359406245847,2.160744516866351
Punt de connexió Barcelona WiFi a la cruïlla del Pg de Sant Joan amb el carrer Casp,2014,Pg Sant Joan,2.0,Eixample,41.39360368666426,2.1768621583860077
Punt de connexió Barcelona WiFi a la cruïlla del carrer Sant Lluís amb el carrer Pi i Maragall,2014,C Pi i Margall,6.0,Gràcia,41.40723070029283,2.1632371966134354
Punt de connexió Barcelona WiFi a la cruïlla del carrer Torre d'en Damians amb c. Consell de Cent,2014,C Torre d'en Damians,3.0,Sants-Montjuïc,41.37575904429753,2.1445167384391493
Punt de connexió Barcelona WiFi a la cruïlla del carrer Torre d'en Damians amb c. Creu Coberta,2014,C Torre d'en Damians,3.0,Sants-Montjuïc,41.37545412801256,2.1446322921907943
Punt de connexió Barcelona WiFi a la cruïlla del carrer Mare de Déu del Coll amb el carrer Maignon,2014,C Mare de Déu del Coll,6.0,Gràcia,41.4084465662193,2.1502645607902893
Punt de connexió Barcelona WiFi a la cruïlla del carrer Modolell amb Via Augusta,2014,C Modolell,5.0,Sarrià-Sant Gervasi,41.39757937344536,2.1373495214938125
Punt de connexió Barcelona WiFi a la cruïlla del carrer Nàpols amb carrer Casp,2014,C Nàpols,2.0,Eixample,41.39536754772437,2.179293525565973
Punt de connexió Barcelona WiFi a la cruïlla del carrer Nàpols amb carrer Indústria,2014,C Nàpols,6.0,Gràcia,41.404176302357385,2.167660047525287
Punt de connexió Barcelona WiFi a la cruïlla del carrer Numància amb carrer Marques de Setmenat,2014,C Numància,4.0,Les Corts,41.38525726737349,2.137165610565717
Centre Esportiu Municipal Sagrada Família,1998,C Cartagena,2.0,Eixample,41.40729090540174,2.179320759601953
Centre Esportiu Municipal Sagrada Família,1998,C Cartagena,2.0,Eixample,41.40729090540174,2.179320759601953
Centre Esportiu Municipal Sagrada Família,1998,C Cartagena,2.0,Eixample,41.40729090540174,2.179320759601953
Centre Esportiu Municipal Sagrada Família,1998,C Cartagena,2.0,Eixample,41.40729090540174,2.179320759601953
Centre Esportiu Municipal Sagrada Família,1998,C Cartagena,2.0,Eixample,41.40729090540174,2.179320759601953
Centre Esportiu Municipal Sagrada Família,1998,C Cartagena,2.0,Eixample,41.40729090540174,2.179320759601953
Centre Esportiu Municipal Sagrada Família,1998,C Cartagena,2.0,Eixample,41.40729090540174,2.179320759601953
Centre Esportiu Municipal Sagrada Família,1998,C Cartagena,2.0,Eixample,41.40729090540174,2.179320759601953
Centre Esportiu Municipal Sagrada Família,1998,C Cartagena,2.0,Eixample,41.40729090540174,2.179320759601953
Servei de Documentació i Accés al Coneixement  (SEDAC),1989,Pl Sant Jaume,1.0,Ciutat Vella,41.38254105123275,2.177172350140966
Servei de Documentació i Accés al Coneixement  (SEDAC),1989,Pl Sant Jaume,1.0,Ciutat Vella,41.38254105123275,2.177172350140966
Servei de Documentació i Accés al Coneixement  (SEDAC),1989,Pl Sant Jaume,1.0,Ciutat Vella,41.38254105123275,2.177172350140966
Sala d'Estudi Garcilaso,2004,C Garcilaso,9.0,Sant Andreu,41.42263560544463,2.1862316852898918
Sala d'Estudi Garcilaso,2004,C Garcilaso,9.0,Sant Andreu,41.42263560544463,2.1862316852898918
Biblioteca La Sagrera-Marina Clotet,2009,Carrer del Camp del Ferro,9.0,Sant Andreu,41.42590664382971,2.193781307287532
Biblioteca La Sagrera-Marina Clotet,2009,Carrer del Camp del Ferro,9.0,Sant Andreu,41.42590664382971,2.193781307287532
Biblioteca La Sagrera-Marina Clotet,2009,Carrer del Camp del Ferro,9.0,Sant Andreu,41.42590664382971,2.193781307287532
Biblioteca La Sagrera-Marina Clotet,2009,Carrer del Camp del Ferro,9.0,Sant Andreu,41.42590664382971,2.193781307287532
Punt de connexió Barcelona WiFi a la cruïlla del carrer Lope de Vega amb el Passeig Garcia Faria,2011,C Lope de Vega,10.0,Sant Martí,41.40024044062201,2.209374650194047
Punt de connexió Barcelona WiFi a la cruïlla del carrer Indústria amb el carrer Navas de Tolosa,2011,C Navas de Tolosa,10.0,Sant Martí,41.41716831239237,2.184554437306185
Punt de connexió Barcelona WiFi a la cruïlla del carrer Comerç amb el Passeig Lluís Companys,2011,Plta Comerç,1.0,Ciutat Vella,41.389923297202174,2.1811992908612674
Punt de connexió Barcelona WiFi a la cruïlla del carrer Ferrocarril amb el Passeig Calvell,2011,Pg Calvell,10.0,Sant Martí,41.39856538696481,2.2075052031277096
Centre Esportiu Municipal Piscina Sant Jordi,1987,París,2.0,Eixample,41.38795885151004,2.14824894371729
Centre Esportiu Municipal Piscina Sant Jordi,1987,París,2.0,Eixample,41.38795885151004,2.14824894371729
Centre Esportiu Municipal Piscina Sant Jordi,1987,París,2.0,Eixample,41.38795885151004,2.14824894371729
Centre Esportiu Municipal Piscina Sant Jordi,1987,París,2.0,Eixample,41.38795885151004,2.14824894371729
Centre Esportiu Municipal Piscina Sant Jordi,1987,París,2.0,Eixample,41.38795885151004,2.14824894371729
Centre Esportiu Municipal Piscina Sant Jordi,1987,París,2.0,Eixample,41.38795885151004,2.14824894371729
Punt de connexió Barcelona WiFi a la cruïlla del carrer Casanova amb Còrsega,2012,C Casanova,2.0,Eixample,41.39073969220964,2.15176539190156
Punt de connexió Barcelona WiFi a la cruïlla del carrer Pau Claris amb la Ronda de Sant Pere,2012,Pl Urquinaona,2.0,Eixample,41.38893152382953,2.1725852583351686
Punt de connexió Barcelona WiFi a la cruïlla del carrer Bruc amb l'Avinguda Diagonal,2012,C Bruc,2.0,Eixample,41.39793439935798,2.1646238492116003
Punt de connexió Barcelona WiFi a la cruïlla Av. de l'Estatut de Catalunya amb Pl. Botticelli,2014,Av Estatut de Catalunya,7.0,Horta-Guinardó,41.43361219395648,2.1532996480378634
Punt de connexió Barcelona WiFi a la cruïlla dels carrers Rocafort amb Rosselló,2014,C Rocafort,2.0,Eixample,41.38457012623248,2.1461829311871616
Punt de connexió Barcelona WiFi a la cruïlla del carrer Villaroel amb carrer Provença,2014,C Villarroel,2.0,Eixample,41.38799332223037,2.1533111427304013
Punt de connexió Barcelona WiFi a la cruïlla del carrer Bilbao amb Pere IV,2014,C Bilbao,10.0,Sant Martí,41.40531337313744,2.200039970334805
Sala d’estudi puntual Ramon d’Alòs-Moner,2021,Rambla de Prim,10.0,Sant Martí,41.41651768836496,2.211829055350884
Sala d’estudi puntual Ramon d’Alòs-Moner,2021,Rambla de Prim,10.0,Sant Martí,41.41651768836496,2.211829055350884
Punt de connexió Barcelona WiFi a la cruïlla del carrer Bac de Roda amb la Ronda del Litoral,2011,C Bac de Roda,10.0,Sant Martí,41.40142937928697,2.212255238832149
Punt de connexió Barcelona WiFi a la cruïlla del carrer Selva de Mar amb Avinguda Diagonal,2011,C Selva de Mar,10.0,Sant Martí,41.408598936799,2.209238394506165
Punt de connexió Barcelona WiFi a la cruïlla de Bac de Roda amb el Passeig Taulat,2011,Pg Taulat,10.0,Sant Martí,41.40283772578351,2.2100273943040354
Punt de connexió Barcelona WiFi a la cruïlla del Passeig de Sant Joan amb el carrer Rosselló,2011,Pg Sant Joan,2.0,Eixample,41.40097060381962,2.1675627359531013
Punt de connexió Barcelona WiFi a la cruïlla de la plaça Lesseps amb el carrer Gran de Gràcia,2011,Pl Lesseps,5.0,Sarrià-Sant Gervasi,41.40638997514115,2.149734522785366
Punt de connexió Barcelona WiFi a la cruïlla del carrer Bilbao amb la Ronda Litoral,2011,Pg Calvell,10.0,Sant Martí,41.39867929404264,2.20916634383397
Punt de connexió Barcelona WiFi a la cruïlla del Passeig de Sant Joan amb el carrer Diputació,2011,Pg Sant Joan,2.0,Eixample,41.3959372353558,2.174074054857894
Punt de connexió Barcelona WiFi a la cruïlla de la Rambla Prim amb el Passeig Taulat,2011,Pl Llevant,10.0,Sant Martí,41.41127131389504,2.219582985516764
Punt de connexió Barcelona WiFi a la cruïlla del carrer Josep Pla amb el Passeig de Garcia Faria,2011,C Josep Pla,10.0,Sant Martí,41.40690732864903,2.2181385849177864
Centre Esportiu Municipal Sant Andreu - La Sagrera,1987,C Santa Coloma,9.0,Sant Andreu,41.429802449253,2.1928695656197794
Centre Esportiu Municipal Sant Andreu - La Sagrera,1987,C Santa Coloma,9.0,Sant Andreu,41.429802449253,2.1928695656197794
Centre Esportiu Municipal Sant Andreu - La Sagrera,1987,C Santa Coloma,9.0,Sant Andreu,41.429802449253,2.1928695656197794
Centre Esportiu Municipal Sant Andreu - La Sagrera,1987,C Santa Coloma,9.0,Sant Andreu,41.429802449253,2.1928695656197794
Centre Esportiu Municipal Sant Andreu - La Sagrera,1987,C Santa Coloma,9.0,Sant Andreu,41.429802449253,2.1928695656197794
Centre Esportiu Municipal Sant Andreu - La Sagrera,1987,C Santa Coloma,9.0,Sant Andreu,41.429802449253,2.1928695656197794
Mercat de les Flors Centre de les Arts de Moviment,1986,Lleida,3.0,Sants-Montjuïc,41.370538264069474,2.157271883570921
Centre Cívic Sant Martí,1984,C Selva de Mar,10.0,Sant Martí,41.41665521642997,2.198581654422569
Centre Cívic Sant Martí,1984,C Selva de Mar,10.0,Sant Martí,41.41665521642997,2.198581654422569
Centre Esportiu Municipal Can Ricart,1991,C Sant Oleguer,1.0,Ciutat Vella,41.37731084646637,2.170880489591537
Centre Esportiu Municipal Can Ricart,1991,C Sant Oleguer,1.0,Ciutat Vella,41.37731084646637,2.170880489591537
Centre Esportiu Municipal Can Ricart,1991,C Sant Oleguer,1.0,Ciutat Vella,41.37731084646637,2.170880489591537
Centre Esportiu Municipal Can Ricart,1991,C Sant Oleguer,1.0,Ciutat Vella,41.37731084646637,2.170880489591537
Centre Esportiu Municipal Can Ricart,1991,C Sant Oleguer,1.0,Ciutat Vella,41.37731084646637,2.170880489591537
Centre Esportiu Municipal Can Ricart,1991,C Sant Oleguer,1.0,Ciutat Vella,41.37731084646637,2.170880489591537
Centre Esportiu Municipal Can Ricart,1991,C Sant Oleguer,1.0,Ciutat Vella,41.37731084646637,2.170880489591537
Centre Esportiu Municipal Can Ricart,1991,C Sant Oleguer,1.0,Ciutat Vella,41.37731084646637,2.170880489591537
Centre Esportiu Municipal Can Ricart,1991,C Sant Oleguer,1.0,Ciutat Vella,41.37731084646637,2.170880489591537
Casal de Gent Gran d'Horta *Feliu i Codina,2004,C Feliu i Codina,7.0,Horta-Guinardó,41.43425288014582,2.16151977853595
Casal de Gent Gran d'Horta *Feliu i Codina,2004,C Feliu i Codina,7.0,Horta-Guinardó,41.43425288014582,2.16151977853595
Parc de la Pegaso,1986,C Sagrera,9.0,Sant Andreu,41.42688804853376,2.190739286407059
Parc de la Pegaso,1986,C Sagrera,9.0,Sant Andreu,41.42688804853376,2.190739286407059
Fundació Antoni Tàpies,1987,C Aragó,2.0,Eixample,41.39155351265377,2.1637754588196367
Oficina d'Atenció Ciutadana del Districte de Sant Martí,1993,Pl Valentí Almirall,10.0,Sant Martí,41.40893542278706,2.191994563654206
Oficina d'Atenció Ciutadana del Districte de Sant Martí,1993,Pl Valentí Almirall,10.0,Sant Martí,41.40893542278706,2.191994563654206
Casal de Gent Gran Penitents,2000,Pg Vall d'Hebron,6.0,Gràcia,41.42003175537995,2.1402254329615684
Casal de Gent Gran Penitents,2000,Pg Vall d'Hebron,6.0,Gràcia,41.42003175537995,2.1402254329615684
Centre Esportiu Municipal de Sant Sebastià,1995,Pl Mar,1.0,Ciutat Vella,41.37338323649785,2.188609349331411
Centre Esportiu Municipal de Sant Sebastià,1995,Pl Mar,1.0,Ciutat Vella,41.37338323649785,2.188609349331411
Centre Esportiu Municipal de Sant Sebastià,1995,Pl Mar,1.0,Ciutat Vella,41.37338323649785,2.188609349331411
Centre Esportiu Municipal de Sant Sebastià,1995,Pl Mar,1.0,Ciutat Vella,41.37338323649785,2.188609349331411
Centre Esportiu Municipal de Sant Sebastià,1995,Pl Mar,1.0,Ciutat Vella,41.37338323649785,2.188609349331411
Centre Esportiu Municipal de Sant Sebastià,1995,Pl Mar,1.0,Ciutat Vella,41.37338323649785,2.188609349331411
Centre Esportiu Municipal de Sant Sebastià,1995,Pl Mar,1.0,Ciutat Vella,41.37338323649785,2.188609349331411
Centre Esportiu Municipal de Sant Sebastià,1995,Pl Mar,1.0,Ciutat Vella,41.37338323649785,2.188609349331411
Centre Esportiu Municipal de Sant Sebastià,1995,Pl Mar,1.0,Ciutat Vella,41.37338323649785,2.188609349331411
Centre Esportiu Municipal de Sant Sebastià,1995,Pl Mar,1.0,Ciutat Vella,41.37338323649785,2.188609349331411
Casal de Gent Gran Mossèn Clapés,2005,C Gran de Sant Andreu,9.0,Sant Andreu,41.44300958069959,2.187586234325732
Casal de Gent Gran Mossèn Clapés,2005,C Gran de Sant Andreu,9.0,Sant Andreu,41.44300958069959,2.187586234325732
Casal de Gent Gran Pedraforca,1985,C Pedraforca,8.0,Nou Barris,41.46141821200166,2.175282758337867
Casal de Gent Gran Pedraforca,1985,C Pedraforca,8.0,Nou Barris,41.46141821200166,2.175282758337867
Centre Esportiu Municipal Vintró - Joan Alentorn,1993,Consell de Cent,10.0,Sant Martí,41.40668991650136,2.1862984907086447
Centre Esportiu Municipal Vintró - Joan Alentorn,1993,Consell de Cent,10.0,Sant Martí,41.40668991650136,2.1862984907086447
Centre Esportiu Municipal Vintró - Joan Alentorn,1993,Consell de Cent,10.0,Sant Martí,41.40668991650136,2.1862984907086447
Centre Esportiu Municipal Vintró - Joan Alentorn,1993,Consell de Cent,10.0,Sant Martí,41.40668991650136,2.1862984907086447
Centre Esportiu Municipal Vintró - Joan Alentorn,1993,Consell de Cent,10.0,Sant Martí,41.40668991650136,2.1862984907086447
Centre Esportiu Municipal Vintró - Joan Alentorn,1993,Consell de Cent,10.0,Sant Martí,41.40668991650136,2.1862984907086447
Centre Esportiu Municipal Vintró - Joan Alentorn,1993,Consell de Cent,10.0,Sant Martí,41.40668991650136,2.1862984907086447
Casal de Gent Gran Navas,1989,C Capella,9.0,Sant Andreu,41.41694937634155,2.181589574669556
Casal de Gent Gran Navas,1989,C Capella,9.0,Sant Andreu,41.41694937634155,2.181589574669556
Jardins del  Baix Guinardó,1995,C Marina,7.0,Horta-Guinardó,41.40977850723608,2.1686584215423337
Jardins del  Baix Guinardó,1995,C Marina,7.0,Horta-Guinardó,41.40977850723608,2.1686584215423337
Centre Esportiu Municipal Estació del Nord,1991,C Nàpols,2.0,Eixample,41.39367157911195,2.1839578397165678
Centre Esportiu Municipal Estació del Nord,1991,C Nàpols,2.0,Eixample,41.39367157911195,2.1839578397165678
Centre Esportiu Municipal Estació del Nord,1991,C Nàpols,2.0,Eixample,41.39367157911195,2.1839578397165678
Centre Esportiu Municipal Estació del Nord,1991,C Nàpols,2.0,Eixample,41.39367157911195,2.1839578397165678
Centre Esportiu Municipal Estació del Nord,1991,C Nàpols,2.0,Eixample,41.39367157911195,2.1839578397165678
Centre Esportiu Municipal Estació del Nord,1991,C Nàpols,2.0,Eixample,41.39367157911195,2.1839578397165678
Centre Esportiu Municipal Estació del Nord,1991,C Nàpols,2.0,Eixample,41.39367157911195,2.1839578397165678
Centre Esportiu Municipal Estació del Nord,1991,C Nàpols,2.0,Eixample,41.39367157911195,2.1839578397165678
Centre Esportiu Municipal Estació del Nord,1991,C Nàpols,2.0,Eixample,41.39367157911195,2.1839578397165678
Centre Esportiu Municipal Estació del Nord,1991,C Nàpols,2.0,Eixample,41.39367157911195,2.1839578397165678
Centre Esportiu Municipal Estació del Nord,1991,C Nàpols,2.0,Eixample,41.39367157911195,2.1839578397165678
Centre Esportiu Municipal Estació del Nord,1991,C Nàpols,2.0,Eixample,41.39367157911195,2.1839578397165678
Centre Esportiu Municipal Estació del Nord,1991,C Nàpols,2.0,Eixample,41.39367157911195,2.1839578397165678
Casal de Gent Gran Bascònia,1988,C Bascònia,9.0,Sant Andreu,41.43612220833439,2.1870553596811515
Casal de Gent Gran Bascònia,1988,C Bascònia,9.0,Sant Andreu,41.43612220833439,2.1870553596811515
Sala Ciutat,1996,C Ciutat,1.0,Ciutat Vella,41.38249038372268,2.177606928169764
Centre Esportiu Municipal Bac de Roda,1998,Rbla Guipúscoa,10.0,Sant Martí,41.41438759082953,2.1940882193496254
Centre Esportiu Municipal Bac de Roda,1998,Rbla Guipúscoa,10.0,Sant Martí,41.41438759082953,2.1940882193496254
Centre Esportiu Municipal Bac de Roda,1998,Rbla Guipúscoa,10.0,Sant Martí,41.41438759082953,2.1940882193496254
Centre Esportiu Municipal Bac de Roda,1998,Rbla Guipúscoa,10.0,Sant Martí,41.41438759082953,2.1940882193496254
Centre Esportiu Municipal Bac de Roda,1998,Rbla Guipúscoa,10.0,Sant Martí,41.41438759082953,2.1940882193496254
Centre Esportiu Municipal Bac de Roda,1998,Rbla Guipúscoa,10.0,Sant Martí,41.41438759082953,2.1940882193496254
Centre Esportiu Municipal Bac de Roda,1998,Rbla Guipúscoa,10.0,Sant Martí,41.41438759082953,2.1940882193496254
Centre Esportiu Municipal Bac de Roda,1998,Rbla Guipúscoa,10.0,Sant Martí,41.41438759082953,2.1940882193496254
Centre Esportiu Municipal Bac de Roda,1998,Rbla Guipúscoa,10.0,Sant Martí,41.41438759082953,2.1940882193496254
Casal de Gent Gran Quatre Cantons,2010,Camí Antic de València,10.0,Sant Martí,41.40680575086897,2.2039755474775142
Casal de Gent Gran Quatre Cantons,2010,Camí Antic de València,10.0,Sant Martí,41.40680575086897,2.2039755474775142
Casal de Gent Gran La Palmera,1985,C Olesa,9.0,Sant Andreu,41.42278079150255,2.1850490251688464
Casal de Gent Gran La Palmera,1985,C Olesa,9.0,Sant Andreu,41.42278079150255,2.1850490251688464
Centre Esportiu Municipal Perill,1989,C Perill,6.0,Gràcia,41.39943181174807,2.1615212113893216
Centre Esportiu Municipal Perill,1989,C Perill,6.0,Gràcia,41.39943181174807,2.1615212113893216
Centre Esportiu Municipal Perill,1989,C Perill,6.0,Gràcia,41.39943181174807,2.1615212113893216
Centre Esportiu Municipal Perill,1989,C Perill,6.0,Gràcia,41.39943181174807,2.1615212113893216
Centre Esportiu Municipal Perill,1989,C Perill,6.0,Gràcia,41.39943181174807,2.1615212113893216
Centre Esportiu Municipal Perill,1989,C Perill,6.0,Gràcia,41.39943181174807,2.1615212113893216
Centre Esportiu Municipal Perill,1989,C Perill,6.0,Gràcia,41.39943181174807,2.1615212113893216
Centre Esportiu Municipal Perill,1989,C Perill,6.0,Gràcia,41.39943181174807,2.1615212113893216
Centre Esportiu Municipal Perill,1989,C Perill,6.0,Gràcia,41.39943181174807,2.1615212113893216
Centre Esportiu Municipal Perill,1989,C Perill,6.0,Gràcia,41.39943181174807,2.1615212113893216
Oficina d'Atenció Ciutadana del Districte de Sarrià - Sant Gervasi,1993,Anglí,5.0,Sarrià-Sant Gervasi,41.400186295433,2.125840736702977
Oficina d'Atenció Ciutadana del Districte de Sarrià - Sant Gervasi,1993,Anglí,5.0,Sarrià-Sant Gervasi,41.400186295433,2.125840736702977
Centre de Serveis Socials Poble-sec,1986,Carrer del Roser,3.0,Sants-Montjuïc,41.37384071899939,2.167042594521253
Centre de Serveis Socials Poble-sec,1986,Carrer del Roser,3.0,Sants-Montjuïc,41.37384071899939,2.167042594521253
Casal de Gent Gran Josep Trueta,1985,C Reina Amàlia,1.0,Ciutat Vella,41.376969254254014,2.1672378540759167
Casal de Gent Gran Josep Trueta,1985,C Reina Amàlia,1.0,Ciutat Vella,41.376969254254014,2.1672378540759167
Espai de Gent Gran Sagrada Família,1997,C Mallorca,2.0,Eixample,41.4059428522944,2.176606897474682
Espai de Gent Gran Sagrada Família,1997,C Mallorca,2.0,Eixample,41.4059428522944,2.176606897474682
Centre Cívic El Sortidor,1999,Plaça del Sortidor,3.0,Sants-Montjuïc,41.37209841325354,2.1625482995945347
Centre Cívic El Sortidor,1999,Plaça del Sortidor,3.0,Sants-Montjuïc,41.37209841325354,2.1625482995945347
Espai Jove Les Basses,1998,C Teide,8.0,Nou Barris,41.43103970121473,2.1692052777403625
Espai Jove Les Basses,1998,C Teide,8.0,Nou Barris,41.43103970121473,2.1692052777403625
Oficina d'Atenció Ciutadana del Districte de Gràcia,1994,Pl Vila de Gràcia,6.0,Gràcia,41.400000918045976,2.157870731711306
Oficina d'Atenció Ciutadana del Districte de Gràcia,1994,Pl Vila de Gràcia,6.0,Gràcia,41.400000918045976,2.157870731711306
Jardins de Can Castelló,1995,Freixa,5.0,Sarrià-Sant Gervasi,41.39904051559379,2.140179532716965
Jardins de Can Castelló,1995,Freixa,5.0,Sarrià-Sant Gervasi,41.39904051559379,2.140179532716965
Jardins de Vil·la Cecília,1998,Santa Amèlia,5.0,Sarrià-Sant Gervasi,41.39374957203113,2.121963830470535
Jardins de Vil·la Cecília,1998,Santa Amèlia,5.0,Sarrià-Sant Gervasi,41.39374957203113,2.121963830470535
Casal de Gent Gran Les Roquetes,1994,Pl Titellaires,8.0,Nou Barris,41.446167856874666,2.174660521309507
Casal de Gent Gran Les Roquetes,1994,Pl Titellaires,8.0,Nou Barris,41.446167856874666,2.174660521309507
Punt 7 - Punt InfoJOVE Horta-Guinardó,2010,C Horta,7.0,Horta-Guinardó,41.4314934655584,2.1598328296050964
